"","VisitNo","SampleID_key","SampleID_frp","StartTime","EndTime","Duration","LatitudeStart","LatitudeEnd","LongitudeStart","LongitudeEnd","DepthMeters","NetMeterStart","NetMeterEnd","TowDirection","SeineCode","SeineDeploymentType","LengthOfTrawl","Width","PercentOpen","GearTypeAbbreviation","volume","Location","Visit.Date2","Comments"
"1",8047,13449,"BEASEI01-BRAD-09MAY2023","08:50","",NA,38.189129,NA,121.920662,NA,0.5,NA,NA," 2= against flow","1. No twists; snags; or tears","Crew Members",15,15,NA,"BEASEI",56.25,"Bradmoor Island",2023-05-09," gps 5; accuracy 2m. not paired."
"2",8369,13810,"BEASEI01-BRAD-16NOV2023","09:10","",NA,38.189449,NA,121.918505,NA,0.5,NA,NA," 2= against flow","1. No twists; snags; or tears","Crew Members",15,15,NA,"BEASEI",56.25,"Bradmoor Island",2023-11-16," gps from ipad. detritus in net but no veg. depth from handheld"
"3",8476,13976,"BEASEI01-BRAD-21DEC2023","10:35","",NA,38.184728,NA,121.918228,NA,1.1,NA,NA," 2= against flow","2. Partial twist; snag; or tear","Crew Members",6.5,7,NA,"BEASEI",25.025,"Bradmoor Island",2023-12-21," code 2: lots of grass on shore; lead line bouncing over grass"
"4",7308,12308,"BEASEI01-HORS-01FEB2023","08:30","",NA,38.098448,NA,121.709436,NA,1,NA,NA," 2= against flow","1. No twists; snags; or tears","Crew Members",7.5,15,NA,"BEASEI",56.25,"Horseshoe Bend",2023-02-01," not paired. gps 5; accuracy 7.7 ft. gps from phone. spc from 26 and 30 off for sonde #2"
"5",7357,12377,"BEASEI01-HORS-02MAR2023","10:47","",NA,38.097354,NA,121.709718,NA,1.1,NA,NA," 2= against flow","1. No twists; snags; or tears","Crew Members",10,8.8,NA,"BEASEI",48.4,"Horseshoe Bend",2023-03-02," gps 5; accuracy 2m. not paired."
"6",7241,12241,"BEASEI01-HORS-03JAN2023","09:10","",NA,38.098501,NA,121.70949,NA,1,NA,NA," 2= against flow","1. No twists; snags; or tears","Crew Members",6,15,NA,"BEASEI",45,"Horseshoe Bend",2023-01-03," gps #6; accuracy 3m. not paired. salmon! gps manually updated from geo-tagged photos taken that day - ed 21jul2023"
"7",7984,13384,"BEASEI01-HORS-10MAY2023","09:09","",NA,38.096885,NA,121.709762,NA,1.1,NA,NA," 2= against flow","1. No twists; snags; or tears","Crew Members",7.5,15,NA,"BEASEI",61.875,"Horseshoe Bend",2023-05-10," gps 6 accuracy 3m. mortality: spltai; splitai brought back to confirm id; 2 unids in vials; frp23-016: unid; frp23-017: spltai. gps calculated in 2023 sample inventory - ed 9/11/2023"
"8",7497,12537,"BEASEI01-HORS-11APR2023","13:13","",NA,38.081527,NA,121.719113,NA,0.6,NA,NA," 2= against flow","2. Partial twist; snag; or tear","Crew Members",12,13,NA,"BEASEI",46.8,"Horseshoe Bend",2023-04-11," seine code 2=lots of mud in cod end; needed to rinse net. salmon mortality. gps calculated in 2023 sample inventory by ed"
"9",8464,13964,"BEASEI01-HORS-19DEC2023","10:56","",NA,38.097357,NA,121.709732,NA,1.1,NA,NA," 3= unknown","1. No twists; snags; or tears","Crew Members",9,8,NA,"BEASEI",39.6,"Horseshoe Bend",2023-12-19," secchi approximately same as depth"
"10",8381,13841,"BEASEI01-HORS-21NOV2023","09:51","",NA,38.097425,NA,121.709772,NA,1.1,NA,NA," 2= against flow","1. No twists; snags; or tears","Crew Members",8.2,15,NA,"BEASEI",67.65,"Horseshoe Bend",2023-11-21," "
"11",8347,13787,"BEASEI01-LIBE-07NOV2023","09:50","",NA,38.242189,NA,121.681876,NA,0.4,NA,NA," 2= against flow","1. No twists; snags; or tears","Crew Members",5.8,13,NA,"BEASEI",15.08,"Liberty Island",2023-11-07," gps coordinates off- ac 12/7/2023. coordinates manually adjusted- ed 6/13/2024. old coordinates: 38.241958; -121.62818"
"12",7363,12383,"BEASEI01-LIBE-08MAR2023","07:50","",NA,38.242036,NA,121.682167,NA,1,NA,NA," 2= against flow","1. No twists; snags; or tears","Crew Members",11,15,NA,"BEASEI",82.5,"Liberty Island",2023-03-08," gps 5; accuracy 2m. not paired. "
"13",8084,13487,"BEASEI01-LIBE-25MAY2023","12:32","",NA,38.241939,NA,121.682273,NA,1.1,NA,NA," 2= against flow","1. No twists; snags; or tears","Crew Members",11,15,NA,"BEASEI",90.75,"Liberty Island",2023-05-25," secchi hit bottom. sacsuc and fish unid both in same vial. gps 6. not paired. sacsuc and unid identified at splitt - ma 5/26/2023"
"14",7968,13374,"BEASEI01-LIBE-26APR2023","14:36","",NA,38.244686,NA,121.686752,NA,0.6,NA,NA," 2= against flow","1. No twists; snags; or tears","Crew Members",10,10,NA,"BEASEI",30,"Liberty Island",2023-04-26," gps 5; accuracy 2m. not paired."
"15",7404,12424,"BEASEI01-LOWE-17MAR2023","10:35","",NA,38.329613,NA,121.680934,NA,0.7,NA,NA," 2= against flow","2. Partial twist; snag; or tear","Crew Members",15,15,NA,"BEASEI",78.75,"Lower Yolo Ranch",2023-03-17," gps 5; accuracy 2m. not paired. lots of dead slugs; no secchi. deepiner in middle of area seined. conducted on floodplain."
"16",8455,13940,"BEASEI01-TULE-14DEC2023","08:38","",NA,38.115551,NA,121.978405,NA,0.5,NA,NA," 3= unknown","1. No twists; snags; or tears","Crew Members",15,14,NA,"BEASEI",52.5,"Tule Red",2023-12-14," lots of filalg!"
"17",7429,12449,"BEASEI01-TULE-20MAR2023","13:25","",NA,38.122837,NA,121.984081,NA,0.6,NA,NA," 2= against flow","1. No twists; snags; or tears","Crew Members",15,15,NA,"BEASEI",67.5,"Tule Red",2023-03-20," gps 5; accuracy 2m. not paired. floodplain; ysi taken from bucket"
"18",7306,12306,"BEASEI01-TULE-30JAN2023","10:01","",NA,38.114449,NA,121.97918,NA,0.5,NA,NA," 2= against flow","2. Partial twist; snag; or tear","Crew Members",15,15,NA,"BEASEI",56.25,"Tule Red",2023-01-30," not paired. gps 5; accuracy 2m. mostly detritus/mud in cod end. ysi taken on a bucket. code 2 because there wasnt much of a beach; bad to pull through veg"
"19",7462,12482,"BEASEI01-WING-04APR2023","11:40","",NA,38.215581,NA,122.035481,NA,0.35,NA,NA," 2= against flow","1. No twists; snags; or tears","Crew Members",15,2.8,NA,"BEASEI",7.35,"Wings Landing",2023-04-04," gps 5; accuracy 3m. not paired."
"20",8056,13458,"BEASEI02-BRAD-09MAY2023","10:05","",NA,38.186072,NA,121.921442,NA,0.8,NA,NA," 2= against flow","1. No twists; snags; or tears","Crew Members",15,15,NA,"BEASEI",90,"Bradmoor Island",2023-05-09," gps 5; accuracy 2m. not paired. tule perch very gravid; started giving birth as it was released. lots of fil alg"
"21",8370,13811,"BEASEI02-BRAD-16NOV2023","09:46","",NA,38.185791,NA,121.921272,NA,0.7,NA,NA," 2= against flow","1. No twists; snags; or tears","Crew Members",15,15,NA,"BEASEI",78.75,"Bradmoor Island",2023-11-16," gps from phone. depth from handheld"
"22",8477,13977,"BEASEI02-BRAD-21DEC2023","11:58","",NA,38.186141,NA,121.919207,NA,1.1,NA,NA," 2= against flow","2. Partial twist; snag; or tear","Crew Members",7.5,9,NA,"BEASEI",37.125,"Bradmoor Island",2023-12-21," code 2: lead line bumping over grass on the way in. grass all over shore"
"23",7365,12385,"BEASEI02-FLYW-08MAR2023","10:05","",NA,38.365069,NA,121.642923,NA,0.8,NA,NA," 2= against flow","2. Partial twist; snag; or tear","Crew Members",13,7,NA,"BEASEI",36.4,"Flyway Farms",2023-03-08," gps 5; accuracy 3m. not paired. code 2 = no actual beach; weird deployment method. veg mostly dead tule. length calculated from google earth (distance between 38.65072; -121.642926 and 38.365168; -121.642926 : double check)"
"24",7309,12309,"BEASEI02-HORS-01FEB2023","08:50","",NA,38.081493,NA,121.719445,NA,0.95,NA,NA," 2= against flow","1. No twists; snags; or tears","Crew Members",12,15,NA,"BEASEI",85.5,"Horseshoe Bend",2023-02-01," not paired. gps 5; accuracy 7.7 ft. gps from phone."
"25",7358,12378,"BEASEI02-HORS-02MAR2023","11:38","",NA,38.08442,NA,121.734377,NA,0.95,NA,NA," 2= against flow","1. No twists; snags; or tears","Crew Members",10,15,NA,"BEASEI",71.25,"Horseshoe Bend",2023-03-02," gps 5; accuracy 2m. not paired. redshi being taken back for better id"
"26",7242,12242,"BEASEI02-HORS-03JAN2023","09:54","",NA,38.097405,NA,121.709736,NA,1,NA,NA," 2= against flow","1. No twists; snags; or tears","Crew Members",6.5,9,NA,"BEASEI",29.25,"Horseshoe Bend",2023-01-03," gps 6; accuracy 2m. not paired. dominant vegetation in net: egeden. tide flowing out still because of amount of water there is. gps manually updated based on fixed beach seine locations - ed 21jul2023"
"27",8001,13401,"BEASEI02-HORS-10MAY2023","09:43","",NA,38.097485,NA,121.709692,NA,1,NA,NA," 2= against flow","1. No twists; snags; or tears","Crew Members",9.2,13,NA,"BEASEI",59.8,"Horseshoe Bend",2023-05-10," gps 6; accuracy 3m. gps picked from known sample location in google earth - ed 9/11/2023"
"28",7499,12539,"BEASEI02-HORS-11APR2023","14:37","",NA,38.097701,NA,121.709563,NA,0.4,NA,NA," 2= against flow","1. No twists; snags; or tears","Crew Members",9,7.8,NA,"BEASEI",14.04,"Horseshoe Bend",2023-04-11," staflo@21 maybe from last sample. gps calculated in 2023 sample inventory- ed 9/11/23."
"29",8382,13842,"BEASEI02-HORS-21NOV2023","10:26","",NA,38.081443,NA,121.719538,NA,1,NA,NA," 2= against flow","1. No twists; snags; or tears","Crew Members",15,15,NA,"BEASEI",112.5,"Horseshoe Bend",2023-11-21," "
"30",8348,13788,"BEASEI02-LIBE-07NOV2023","10:47","",NA,38.266442,NA,121.691537,NA,0.7,NA,NA," 2= against flow","1. No twists; snags; or tears","Crew Members",9.2,7.8,NA,"BEASEI",25.116,"Liberty Island",2023-11-07," "
"31",7969,13375,"BEASEI02-LIBE-26APR2023","15:04","",NA,38.24197,NA,121.682398,NA,0.5,NA,NA," 2= against flow","1. No twists; snags; or tears","Crew Members",8,15,NA,"BEASEI",30,"Liberty Island",2023-04-26," gps 5; accuracy 2m. not paired. fish unid tag frp23-013- identified as spltai - ma 9/14/2023"
"32",8456,13941,"BEASEI02-TULE-14DEC2023","10:50","",NA,38.116772,NA,121.977771,NA,0.5,NA,NA," 3= unknown","2. Partial twist; snag; or tear","Crew Members",12,8.5,NA,"BEASEI",25.5,"Tule Red",2023-12-14," lead line rolled up on itself while pulling in over shallow substrate + veg. likely started on bottom since so shallow"
"33",7307,12307,"BEASEI02-TULE-30JAN2023","10:45","",NA,38.123869,NA,121.979686,NA,1.2,NA,NA," 2= against flow","2. Partial twist; snag; or tear","Crew Members",10,13,NA,"BEASEI",78,"Tule Red",2023-01-30," not paired. gps 5; accuracy 3m. ysi from bucket. lots of mysids in net. seine code 2 because of modified seine; drop off; and through veg - see photos for details."
"34",7463,12483,"BEASEI02-WING-04APR2023","12:30","",NA,38.219662,NA,122.032166,NA,0.5,NA,NA," 2= against flow","1. No twists; snags; or tears","Crew Members",15,15,NA,"BEASEI",56.25,"Wings Landing",2023-04-04," gps 5; accuracy 2m. not paired. "
"35",8478,13978,"BEASEI03-ARNO-21DEC2023","12:46","",NA,38.174483,NA,121.903064,NA,1.1,NA,NA," 2= against flow","1. No twists; snags; or tears","Crew Members",13,15,NA,"BEASEI",107.25,"Arnold Slough",2023-12-21," "
"36",8057,13459,"BEASEI03-BRAD-09MAY2023","11:21","",NA,38.193325,NA,121.9182,NA,0.7,NA,NA," 2= against flow","1. No twists; snags; or tears","Crew Members",15,15,NA,"BEASEI",78.75,"Bradmoor Island",2023-05-09," gps 5; accuracy 2m. not paired"
"37",8371,13812,"BEASEI03-BRAD-16NOV2023","10:35","",NA,38.193411,NA,121.918245,NA,0.9,NA,NA," 2= against flow","1. No twists; snags; or tears","Crew Members",15,15,NA,"BEASEI",101.25,"Bradmoor Island",2023-11-16," gps from phone. depth from handheld. +1 mosqui lost before measuring. unid shrimp broken rostrum"
"38",7367,12387,"BEASEI03-LIBE-08MAR2023","13:18","",NA,38.266507,NA,121.691488,NA,0.6,NA,NA," 2= against flow","1. No twists; snags; or tears","Crew Members",13,15,NA,"BEASEI",58.5,"Liberty Island",2023-03-08," gps 5; accuracy 2m. not paired. "
"39",8060,13462,"BEASEI04-ARNO-09MAY2023","12:22","",NA,38.175929,NA,121.903898,NA,0.3,NA,NA," 2= against flow","1. No twists; snags; or tears","Crew Members",15,15,NA,"BEASEI",33.75,"Arnold Slough",2023-05-09," gps 5; accuracy 2m. not paired."
"40",8372,13813,"BEASEI04-ARNO-16NOV2023","12:00","",NA,38.174523,NA,121.903187,NA,0.7,NA,NA," 2= against flow","1. No twists; snags; or tears","Crew Members",7.5,15,NA,"BEASEI",39.375,"Arnold Slough",2023-11-16," gps from phone."
"41",8479,13979,"BEASEI04-ARNO-21DEC2023","13:28","",NA,38.181209,NA,121.90363,NA,0.85,NA,NA," 2= against flow","2. Partial twist; snag; or tear","Crew Members",12,15,NA,"BEASEI",76.5,"Arnold Slough",2023-12-21," code 2: island/obstacles"
"42",7494,12534,"CAST01-BROW-05APR2023","14:56","",NA,38.038632,NA,121.86813,NA,2.8,NA,NA," ","","",NA,NA,NA,"CAST",NA,"Browns Island",2023-04-05," 6 good casts/ casts done right next to salmon cages"
"43",8354,13796,"CAST01-CHIP-15NOV2023","11:36","",NA,38.059826,NA,121.917927,NA,NA,NA,NA," ","","",NA,NA,58.5,"CAST",NA,"Chipps Island",2023-11-15," "
"44",7982,13426,"CAST01-DECK-10MAY2023","07:40","",NA,38.084942,NA,121.723334,NA,NA,NA,NA," ","","",NA,NA,71,"CAST",NA,"Decker Island",2023-05-10," gps 6 accuracy 3m. gps from geo-tagged photos - ed 9/11/2023"
"45",8045,13446,"CAST01-FLYW-27APR2023","14:05","",NA,38.361107,NA,121.643018,NA,NA,NA,NA," ","","",NA,NA,38,"CAST",NA,"Flyway Farms",2023-04-27," gps 5 accuracy 2m. percent open: avg of all. actual: 80%; 30%; 40%; 10%; 30%. paired? y"
"46",8438,13923,"CAST01-LOWE-06DEC2023","12:42","",NA,38.353594,NA,121.660802,NA,1.8,NA,NA," ","","",NA,NA,70,"CAST",NA,"Lower Yolo Ranch",2023-12-06," "
"47",7405,12425,"CAST01-LOWE-17MAR2023","11:14","",NA,38.352385,NA,121.661029,NA,NA,NA,NA," ","","",NA,NA,NA,"CAST",NA,"Lower Yolo Ranch",2023-03-17," gps 5; accuracy 2m. not paired. inside. 9 casts"
"48",8028,13432,"CAST01-LOWE-26MAY2023","08:16","",NA,38.34965,NA,121.676211,NA,0.9,NA,NA," ","","",NA,NA,72,"CAST",NA,"Lower Yolo Ranch",2023-05-26," gps 6 accuracy 3m. depth from handheld."
"49",7464,12485,"CAST01-PEYT-04APR2023","00:00","",NA,38.226724,NA,122.040664,NA,NA,NA,NA," ","","",NA,NA,NA,"CAST",NA,"Peytonia-Suisun",2023-04-04," 4 casts"
"50",8078,13485,"CAST01-TULE-15JUN2023","10:32","",NA,38.126071,NA,121.986332,NA,1.4,NA,NA," ","","",NA,NA,54,"CAST",NA,"Tule Red",2023-06-15," gps 5 accuracy 2m"
"51",8004,13428,"CAST01-TULE-16MAY2023","10:20","",NA,38.131348,NA,121.99132,NA,1.6,NA,NA," ","","",NA,NA,63,"CAST",NA,"Tule Red",2023-05-16," gps 6 accuracy 3m. depth from handheld."
"52",7864,14872,"CAST01-TULE-17APR2023","13:35","",NA,38.131093,NA,121.978304,NA,NA,NA,NA," ","","",NA,NA,NA,"CAST",NA,"Tule Red",2023-04-17," "
"53",7784,12844,"CAST01-TULE-18APR2023","10:21","",NA,38.126572,NA,121.987524,NA,NA,NA,NA," ","","",NA,NA,NA,"CAST",NA,"Tule Red",2023-04-18," 5 good casts; gps 6 accuracy 2. gps from geo-tagged photos - ed 9/7/2023"
"54",7428,12448,"CAST01-TULE-20MAR2023","13:02","",NA,38.116551,NA,121.981678,NA,1.8,NA,NA," ","","",NA,NA,NA,"CAST",NA,"Tule Red",2023-03-20," gps 5; accuracy 2m. not paired. inside. end time 13:10. 3 throws of cast net. depth is 1.8 m."
"55",8067,13468,"CAST01-WING-03MAY2023","12:00","",NA,38.224422,NA,122.037579,NA,0.8,NA,NA," ","","",NA,NA,73,"CAST",NA,"Wings Landing",2023-05-03," gps 5; accuracy 2m. not paired. percent open avg. actual: 80%; 80%; 70%; 80%; 60%; 70% depth from handheld"
"56",7695,12755,"CAST01-WTIB-12APR2023","08:48","",NA,38.095334,NA,121.589949,NA,2.3,NA,NA," ","","",NA,NA,NA,"CAST",NA,"Webb Tract Island and Berms",2023-04-12," gps 6; accuracy 3m. paired. 4 attempts. time copied from invert data sheet. estimated time casting ~20 minutes. gps calculated 2023 sample inventory ed 9/11/23"
"57",7983,13427,"CAST02-DECK-10MAY2023","08:33","",NA,38.084277,NA,121.723929,NA,1.9,NA,NA," ","","",NA,NA,70,"CAST",NA,"Decker Island",2023-05-10," depth from handheld. gps from geo-tagged photo - ed 9/11/2023"
"58",7406,12426,"CAST02-FLYW-17MAR2023","12:25","",NA,38.360451,NA,121.642178,NA,1.9,NA,NA," ","","",NA,NA,NA,"CAST",NA,"Flyway Farms",2023-03-17," gps 5; accuracy 2m. not paired.casts done ""on land"" since site covered with water. very high flow. 3 casts"
"59",8031,13435,"CAST02-LOWE-26MAY2023","11:07","",NA,38.35362,NA,121.660628,NA,1,NA,NA," ","","",NA,NA,67,"CAST",NA,"Lower Yolo Ranch",2023-05-26," gps 6 accuracy 3m. lavaged larbas @374: nothing. depth from handheld."
"60",8005,13429,"CAST02-TULE-16MAY2023","11:05","",NA,38.121323,NA,121.982431,NA,2.3,NA,NA," ","","",NA,NA,72,"CAST",NA,"Tule Red",2023-05-16," gps 6 accuracy 3m. depth from handheld."
"61",7787,12848,"CAST02-TULE-18APR2023","11:52","",NA,38.1236,NA,121.9807,NA,NA,NA,NA," ","","",NA,NA,NA,"CAST",NA,"Tule Red",2023-04-18," same wq as lamope06-tule-18apr2023; 4 casts. gps 6 accuracy 3m. gps from geo-tagged photos - ed 9/7/2023"
"62",7430,12450,"CAST02-TULE-20MAR2023","14:00","",NA,38.12765,NA,121.986978,NA,0.9,NA,NA," ","","",NA,NA,NA,"CAST",NA,"Tule Red",2023-03-20," gps 5; accuracy 2m. not paired. depth 0.9 m. 6 casts."
"63",8426,13907,"HOOK01-BRAD-28NOV2023","00:00","",NA,38.18289,NA,121.924116,NA,NA,NA,NA," ","","",NA,NA,NA,"HOOK",NA,"Bradmoor Island",2023-11-28," caught near breach ~30 m from lampara sample. gps selected from google earth- ed 6/19/2024"
"64",8355,13798,"HOOK01-HONK-15NOV2023","00:00","",NA,38.058859,NA,121.904821,NA,NA,NA,NA," ","","",NA,NA,NA,"HOOK",NA,"Honker-Spoonbill",2023-11-15," "
"65",8385,13846,"HOOK01-HORS-21NOV2023","00:00","",NA,38.082882,NA,121.725291,NA,NA,NA,NA," ","","",NA,NA,NA,"HOOK",NA,"Horseshoe Bend",2023-11-21," 1/2 oz swimjig. steady retireve w/ intermittent pulses. 5"" plastic paddletail"
"66",8407,13868,"HOOK01-RYER-11OCT2023","13:10","",NA,38.083305,NA,122.012593,NA,NA,NA,NA," ","","",NA,NA,NA,"HOOK",NA,"Ryer Island",2023-10-11," caught with rolling amesha during trawl. put otttra07 trawl start coordinates as hook01 coordinates- ed"
"67",8435,13918,"HOOK01-STAI-06DEC2023","09:20","",NA,38.316512,NA,121.667482,NA,NA,NA,NA," ","","",NA,NA,NA,"HOOK",NA,"Stairsteps-Liberty Cut",2023-12-06," plus counted larbas got off hook near boat"
"68",8626,14533,"HOOK01-TULE-14NOV2023","00:00","",NA,38.121495,NA,121.9818,NA,NA,NA,NA," ","","",NA,NA,NA,"HOOK",NA,"Tule Red",2023-11-14," hknl striper 60 cm healthy; 47 cm healthy; main channel near back side channel with pole in mouth. gps starting of trawl."
"69",8085,14876,"HOOK01-TULE-15JUN2023","00:00","",NA,38.133972,NA,121.994661,NA,NA,NA,NA," ","","",NA,NA,NA,"HOOK",NA,"Tule Red",2023-06-15," "
"70",8413,13875,"HOOK01-TULE-27NOV2023","00:00","",NA,38.125989,NA,121.987131,NA,NA,NA,NA," ","","",NA,NA,NA,"HOOK",NA,"Tule Red",2023-11-27," "
"71",8428,13910,"HOOK02-ARNO-28NOV2023","00:00","",NA,38.180324,NA,121.905759,NA,NA,NA,NA," ","","",NA,NA,NA,"HOOK",NA,"Arnold Slough",2023-11-28," "
"72",8086,14877,"HOOK02-RYER-15JUN2023","00:00","",NA,38.086143,NA,122.022373,NA,NA,NA,NA," ","","",NA,NA,NA,"HOOK",NA,"Ryer Island",2023-06-15," strbas @385 hook and line (38.086143; -122.022373)"
"73",8625,14540,"HOOK02-TULE-14NOV2023","00:00","",NA,38.118634,NA,121.981909,NA,NA,NA,NA," ","","",NA,NA,NA,"HOOK",NA,"Tule Red",2023-11-14," dh caught striper at 500 mm after 10-15 casts. used eav gps for hook sample"
"74",8413,13876,"HOOK02-TULE-27NOV2023","00:00","",NA,38.121389,NA,121.982587,NA,NA,NA,NA," ","","",NA,NA,NA,"HOOK",NA,"Tule Red",2023-11-27," "
"75",8626,14874,"HOOK03-TULE-14NOV2023","00:00","",NA,38.123292,NA,121.981198,NA,NA,NA,NA," ","","",NA,NA,NA,"HOOK",NA,"Tule Red",2023-11-14," striper 41 cm healthy from tidal pond end gps of trawl"
"76",7312,12312,"LAMOPE01-BROA-02FEB2023","08:27","",NA,38.031763,NA,121.838429,NA,6,NA,NA," 2= against flow","2. Partial twist; snag; or tear","Boat",NA,NA,NA,"LAMOPE",332.7,"Broad Slough",2023-02-02," not paired. gps 5; accuracy 3m. code 2: depth. all holes in lam03 repaired yesterday"
"77",7481,12521,"LAMOPE01-BROA-05APR2023","09:37","",NA,38.039595,NA,121.838661,NA,9.5,NA,NA," 2= against flow","2. Partial twist; snag; or tear","Boat",NA,NA,NA,"LAMOPE",332.7,"Broad Slough",2023-04-05," gps 5; accuracy 3m. not paired. code 2: depth and twist in wing"
"78",8440,13925,"LAMOPE01-BROA-11DEC2023","07:46","",NA,38.044126,NA,121.841397,NA,5.9,NA,NA," 2= against flow","2. Partial twist; snag; or tear","Boat",NA,NA,NA,"LAMOPE",332.7,"Broad Slough",2023-12-11," code 2 = depth"
"79",8349,13789,"LAMOPE01-BROA-15NOV2023","08:52","",NA,38.035836,NA,121.839532,NA,8.1,NA,NA," 2= against flow","2. Partial twist; snag; or tear","Boat",NA,NA,NA,"LAMOPE",332.7,"Broad Slough",2023-11-15," code 2: depth"
"80",8011,13411,"LAMOPE01-BROA-18MAY2023","08:53","",NA,38.043055,NA,121.841883,NA,6,NA,NA," 2= against flow","2. Partial twist; snag; or tear","Boat",NA,NA,NA,"LAMOPE",332.7,"Broad Slough",2023-05-18," gps 6 accuracy 2m. code 2: depth and waves. depth from handheld"
"81",7318,12318,"LAMOPE01-DECK-08FEB2023","07:44","",NA,38.084277,NA,121.723997,NA,1.5,NA,NA," 2= against flow","2. Partial twist; snag; or tear","Boat",NA,NA,NA,"LAMOPE",159.12201242824,"Decker Island",2023-02-08," not paired. gps 5; accuracy 2m. cod end ~25% full of mud/detritus"
"82",7492,12533,"LAMOPE01-DECK-11APR2023","07:55","",NA,38.083982,NA,121.724069,NA,1.5,NA,NA," 2= against flow","2. Partial twist; snag; or tear","Boat",NA,NA,NA,"LAMOPE",159.12201242824,"Decker Island",2023-04-11," depth from seaark. forgot gps. in decker pond; same as previous samples. seine code 2=funky decker deployment"
"83",8002,13402,"LAMOPE01-GRIZ-16MAY2023","09:30","",NA,38.132095,NA,122.00263,NA,1.3,NA,NA," 2= against flow","1. No twists; snags; or tears","Boat",NA,NA,NA,"LAMOPE",139.010648691434,"Grizzly Bay",2023-05-16," gps 6 accuracy 3m. depth from handheld. gps 6 worked this day."
"84",7781,12841,"LAMOPE01-GRIZ-18APR2023","08:32","",NA,38.129882,NA,122.01294,NA,1.3,NA,NA," 2= against flow","1. No twists; snags; or tears","Boat",NA,NA,NA,"LAMOPE",139.010648691434,"Grizzly Bay",2023-04-18," paired y . gps calculated in 2023 sample inventory - ed 9/7/2023"
"85",7421,12441,"LAMOPE01-GRIZ-20MAR2023","09:54","",NA,38.136713,NA,122.00625,NA,2.3,NA,NA," 2= against flow","1. No twists; snags; or tears","Boat",NA,NA,NA,"LAMOPE",232.751925056618,"Grizzly Bay",2023-03-20," gps 5; accuracy 2m.not paired. water moving downstream because of flow"
"86",8480,13980,"LAMOPE01-GRIZ-22DEC2023","09:19","",NA,38.129859,NA,122.001659,NA,2.7,NA,NA," 2= against flow","1. No twists; snags; or tears","Boat",NA,NA,NA,"LAMOPE",265.477555979498,"Grizzly Bay",2023-12-22," "
"87",8410,13871,"LAMOPE01-GRIZ-27NOV2023","09:03","",NA,38.115481,NA,122.006453,NA,2.5,NA,NA," 2= against flow","1. No twists; snags; or tears","Boat",NA,NA,NA,"LAMOPE",249.455517634,"Grizzly Bay",2023-11-27," photo backup for gps"
"88",7310,12310,"LAMOPE01-HORS-01FEB2023","09:21","",NA,38.084428,NA,121.734674,NA,4.1,NA,NA," 2= against flow","2. Partial twist; snag; or tear","Boat",NA,NA,NA,"LAMOPE",332.7,"Horseshoe Bend",2023-02-01," not paired. gps from phone -; accuracy 7.7 ft. code 2 - depth"
"89",7243,12243,"LAMOPE01-HORS-03JAN2023","10:31","",NA,38.083104,NA,121.712136,NA,3.2,NA,NA," 2= against flow","1. No twists; snags; or tears","Boat",NA,NA,NA,"LAMOPE",302.550852078746,"Horseshoe Bend",2023-01-03," gps 6; accuracy 3m. not paired.gps calculated and corrected in 2023 sample inventory - ed 21jul2023"
"90",8383,13843,"LAMOPE01-HORS-21NOV2023","10:59","",NA,38.081391,NA,121.722002,NA,5.3,NA,NA," 2= against flow","2. Partial twist; snag; or tear","Boat",NA,NA,NA,"LAMOPE",332.7,"Horseshoe Bend",2023-11-21," code 2: depth"
"91",7364,12384,"LAMOPE01-LIBE-08MAR2023","08:40","",NA,38.271996,NA,121.669031,NA,1.6,NA,NA," 2= against flow","1. No twists; snags; or tears","Boat",NA,NA,NA,"LAMOPE",168.922111459686,"Liberty Island",2023-03-08," gps 5; accuracy 2m. not paired.shrimp unid b/c broken rostrums"
"92",8469,13969,"LAMOPE01-LIBE-20DEC2023","08:43","",NA,38.250902,NA,121.6857,NA,1.9,NA,NA," 2= against flow","1. No twists; snags; or tears","Boat",NA,NA,NA,"LAMOPE",197.300077206198,"Liberty Island",2023-12-20," "
"93",7281,12281,"LAMOPE01-LIBE-25JAN2023","08:42","",NA,38.298788,NA,121.680292,NA,1.4,NA,NA," 2= against flow","1. No twists; snags; or tears","Boat",NA,NA,NA,"LAMOPE",149.151524838822,"Liberty Island",2023-01-25," not paired. gps 5; accuracy 2m. leigh sanders is a guest. unid shrimps had broken rostrums."
"94",8079,13480,"LAMOPE01-LIBE-25MAY2023","08:00","",NA,38.298758,NA,121.681691,NA,0.9,NA,NA," 2= against flow","1. No twists; snags; or tears","Boat",NA,NA,NA,"LAMOPE",96.7432585221664,"Liberty Island",2023-05-25," depth from handheld for all samples. gps 6; accuracy 3m. not paired. "
"95",7960,13366,"LAMOPE01-LIBE-26APR2023","08:51","",NA,38.301366,NA,121.68179,NA,0.8,NA,NA," 2= against flow","1. No twists; snags; or tears","Boat",NA,NA,NA,"LAMOPE",85.7504395849216,"Liberty Island",2023-04-26," gps 5; accuracy 3m. not paired. depth from handheld"
"96",8027,13430,"LAMOPE01-LOWE-26MAY2023","07:30","",NA,38.338056,NA,121.666676,NA,1.9,NA,NA," 2= against flow","1. No twists; snags; or tears","Boat",NA,NA,NA,"LAMOPE",197.300077206198,"Lower Yolo Ranch",2023-05-26," gps 6 accuracy 3m. depth from handheld."
"97",8489,13989,"LAMOPE01-NURS-26DEC2023","09:02","",NA,38.181595,NA,121.91546,NA,1.6,NA,NA," 2= against flow","1. No twists; snags; or tears","Boat",NA,NA,NA,"LAMOPE",168.922111459686,"Nurse-Denverton",2023-12-26," "
"98",8421,13901,"LAMOPE01-NURS-28NOV2023","09:30","",NA,38.180882,NA,121.921976,NA,2.6,NA,NA," 2= against flow","1. No twists; snags; or tears","Boat",NA,NA,NA,"LAMOPE",257.551731085734,"Nurse-Denverton",2023-11-28," "
"99",8063,13465,"LAMOPE01-PEYT-03MAY2023","10:58","",NA,38.217251,NA,122.030953,NA,0.8,NA,NA," 2= against flow","1. No twists; snags; or tears","Boat",NA,NA,NA,"LAMOPE",85.7504395849216,"Peytonia-Suisun",2023-05-03," depth from handheld. gps 5. accuracy 2m. not paired."
"100",7461,12481,"LAMOPE01-PEYT-04APR2023","11:15","",NA,38.210998,NA,122.035481,NA,3.3,NA,NA," 2= against flow","1. No twists; snags; or tears","Boat",NA,NA,NA,"LAMOPE",309.454345624682,"Peytonia-Suisun",2023-04-04," gps 5; accuracy 2m. not paired. "
"101",7433,12453,"LAMOPE01-PEYT-16MAR2023","07:52","",NA,38.207697,NA,122.033163,NA,7.1,NA,NA," 3= unknown","2. Partial twist; snag; or tear","Boat",NA,NA,NA,"LAMOPE",332.7,"Peytonia-Suisun",2023-03-16," gps 5; accuracy 2m. not paired. tow direction: na perpendicular to flow. majority of veg in cod end dead tule. wing caught on patch of dead tule and caused deployment to go sideways"
"102",7265,12269,"LAMOPE01-PEYT-19JAN2023","07:35","",NA,38.226707,NA,122.034588,NA,1,NA,NA," 2= against flow","1. No twists; snags; or tears","Boat",NA,NA,NA,"LAMOPE",107.56568890144,"Peytonia-Suisun",2023-01-19," gps 5; accuracy 2m. not paired. sampled through tule. frp23-503 thrsti 36 0 whole etoh"
"103",8501,14001,"LAMOPE01-PEYT-29DEC2023","09:37","",NA,38.210639,NA,122.035291,NA,4.2,NA,NA," 2= against flow","2. Partial twist; snag; or tear","Boat",NA,NA,NA,"LAMOPE",332.7,"Peytonia-Suisun",2023-12-29," code 2: depth"
"104",8433,13915,"LAMOPE01-STAI-06DEC2023","08:24","",NA,38.321848,NA,121.690286,NA,1.8,NA,NA," 2= against flow","1. No twists; snags; or tears","Boat",NA,NA,NA,"LAMOPE",188.011143848666,"Stairsteps-Liberty Cut",2023-12-06," "
"105",7401,12421,"LAMOPE01-STAI-17MAR2023","09:25","",NA,38.317758,NA,121.667412,NA,7.5,NA,NA," 2= against flow","2. Partial twist; snag; or tear","Boat",NA,NA,NA,"LAMOPE",332.7,"Stairsteps-Liberty Cut",2023-03-17," gps 5; accuracy 5m. not paired. very high flow. code 2: depth"
"106",8373,13814,"LAMOPE01-STAI-20NOV2023","09:07","",NA,38.307196,NA,121.667165,NA,7.6,NA,NA," 2= against flow","2. Partial twist; snag; or tear","Boat",NA,NA,NA,"LAMOPE",332.7,"Stairsteps-Liberty Cut",2023-11-20," code 2: depth"
"107",8041,13441,"LAMOPE01-STAI-27APR2023","09:01","",NA,38.32204,NA,121.685086,NA,3.7,NA,NA," 2= against flow","2. Partial twist; snag; or tear","Boat",NA,NA,NA,"LAMOPE",332.7,"Stairsteps-Liberty Cut",2023-04-27," gps 5; accuracy 3m. depth from handheld. code 2: depth"
"108",7292,12292,"LAMOPE01-TULE-26JAN2023","08:01","",NA,38.128945,NA,121.988682,NA,2,NA,NA," 2= against flow","1. No twists; snags; or tears","Boat",NA,NA,NA,"LAMOPE",206.41862200576,"Tule Red",2023-01-26," not paired. gps 5; accuracy 2m. repaired a 4-5 inch section along float line that came disconnected"
"109",7341,12361,"LAMOPE01-TULE-28FEB2023","08:15","",NA,38.133988,NA,121.994968,NA,2.7,NA,NA," 2= against flow","1. No twists; snags; or tears","Boat",NA,NA,NA,"LAMOPE",265.477555979498,"Tule Red",2023-02-28," gps 5; accuracy 2m. not paired."
"110",7250,12253,"LAMOPE01-WINT-12JAN2023","08:26","",NA,38.046178,NA,121.849661,NA,1.5,NA,NA," 2= against flow","2. Partial twist; snag; or tear","Boat",NA,NA,NA,"LAMOPE",159.12201242824,"Winter Island",2023-01-12," gps 5; accuracy 2m. not paired. net briefly caught on something but it came loose when it was being pulled in; no holes found"
"111",7369,12389,"LAMOPE01-WINT-15MAR2023","09:07","",NA,38.03177,NA,121.842671,NA,3.5,NA,NA," 2= against flow","1. No twists; snags; or tears","Boat",NA,NA,NA,"LAMOPE",322.75016704264,"Winter Island",2023-03-15," gps 5; accuracy 2m. not paired. "
"112",7354,12374,"LAMOPE01-WTIB-02MAR2023","08:48","",NA,38.095843,NA,121.592125,NA,7.2,NA,NA," 2= against flow","2. Partial twist; snag; or tear","Boat",NA,NA,NA,"LAMOPE",332.7,"Webb Tract Island and Berms",2023-03-02," code 2 - depth. gps 5; accuracy 2m. not paired"
"113",7696,12756,"LAMOPE01-WTIB-12APR2023","15:25","",NA,38.095075,NA,121.583455,NA,3.9,NA,NA," 2= against flow","2. Partial twist; snag; or tear","Boat",NA,NA,NA,"LAMOPE",332.7,"Webb Tract Island and Berms",2023-04-12," gps 6; accuracy 3m. paired. code 2 - depth. gps calculated 2023 sample inventory 9/11/23 ed"
"114",7313,12313,"LAMOPE02-BROA-02FEB2023","08:50","",NA,38.044829,NA,121.846553,NA,2.9,NA,NA," 2= against flow","1. No twists; snags; or tears","Boat",NA,NA,NA,"LAMOPE",280.81804009311,"Broad Slough",2023-02-02," not paired. gps 5; accuracy 2m. "
"115",7482,12522,"LAMOPE02-BROA-05APR2023","09:54","",NA,38.051843,NA,121.842599,NA,9.5,NA,NA," 2= against flow","2. Partial twist; snag; or tear","Boat",NA,NA,NA,"LAMOPE",332.7,"Broad Slough",2023-04-05," gps 5; accuracy 2m. not paired. using handheld depth finder. code 2: depth"
"116",8441,13926,"LAMOPE02-BROA-11DEC2023","08:03","",NA,38.060323,NA,121.847885,NA,4.9,NA,NA," 2= against flow","2. Partial twist; snag; or tear","Boat",NA,NA,NA,"LAMOPE",332.7,"Broad Slough",2023-12-11," code 2 = depth"
"117",8350,13790,"LAMOPE02-BROA-15NOV2023","09:15","",NA,38.047933,NA,121.847785,NA,3.3,NA,NA," 2= against flow","1. No twists; snags; or tears","Boat",NA,NA,NA,"LAMOPE",309.454345624682,"Broad Slough",2023-11-15," "
"118",8012,13412,"LAMOPE02-BROA-18MAY2023","09:11","",NA,38.045395,NA,121.846622,NA,8,NA,NA," 2= against flow","2. Partial twist; snag; or tear","Boat",NA,NA,NA,"LAMOPE",332.7,"Broad Slough",2023-05-18," gps 6 accuracy 3m. code 2: depth. depth from handheld"
"119",7983,13383,"LAMOPE02-DECK-10MAY2023","08:33","",NA,38.08432,NA,121.723897,NA,1.9,NA,NA," 2= against flow","1. No twists; snags; or tears","Boat",NA,NA,NA,"LAMOPE",197.300077206198,"Decker Island",2023-05-10," depth from handheld. gps 6 accuracy 3m. gps calculated in 2023 sample inventory - ed 9/11/2023"
"120",7366,12386,"LAMOPE02-FLYW-08MAR2023","11:16","",NA,38.362298,NA,121.642792,NA,1.2,NA,NA," 2= against flow","2. Partial twist; snag; or tear","Crew Members and Boat",NA,NA,NA,"LAMOPE",128.699383986074,"Flyway Farms",2023-03-08," gps 5; accuracy 2m. not paired. "
"121",8003,13403,"LAMOPE02-GRIZ-16MAY2023","09:45","",NA,38.130617,NA,121.997562,NA,0.9,NA,NA," 2= against flow","1. No twists; snags; or tears","Boat",NA,NA,NA,"LAMOPE",96.7432585221664,"Grizzly Bay",2023-05-16," depth from handheld. gps 6 accuracy 4m"
"122",7782,12842,"LAMOPE02-GRIZ-18APR2023","08:56","",NA,38.124512,NA,122.009959,NA,1.5,NA,NA," 2= against flow","1. No twists; snags; or tears","Boat",NA,NA,NA,"LAMOPE",159.12201242824,"Grizzly Bay",2023-04-18," paired y . gps calculated in 2023 sample inventory - ed 9/7/2023. trace amounts of vegetation in net"
"123",7422,12442,"LAMOPE02-GRIZ-20MAR2023","10:16","",NA,38.12365,NA,122.001351,NA,2.3,NA,NA," 2= against flow","1. No twists; snags; or tears","Boat",NA,NA,NA,"LAMOPE",232.751925056618,"Grizzly Bay",2023-03-20," gps 5; accuracy 2;. not paired. ysi reading done in bucket due to waves"
"124",8411,13872,"LAMOPE02-GRIZ-27NOV2023","09:21","",NA,38.118756,NA,122.009661,NA,2.6,NA,NA," 2= against flow","1. No twists; snags; or tears","Boat",NA,NA,NA,"LAMOPE",257.551731085734,"Grizzly Bay",2023-11-27," "
"125",7244,12244,"LAMOPE02-HORS-03JAN2023","10:59","",NA,38.084148,NA,121.720405,NA,1.9,NA,NA," 2= against flow","1. No twists; snags; or tears","Boat",NA,NA,NA,"LAMOPE",197.300077206198,"Horseshoe Bend",2023-01-03," gps 6; accuracy 3m. not paired. dominant vegetation in net: egeden; hyacinth. gps calculated and corrected in 2023 sample inventory - ed 21jul2023"
"126",7319,12319,"LAMOPE02-HORS-08FEB2023","08:43","",NA,38.080553,NA,121.729004,NA,2.1,NA,NA," 2= against flow","1. No twists; snags; or tears","Boat",NA,NA,NA,"LAMOPE",215.36677824735,"Horseshoe Bend",2023-02-08," not paired. gps 5; accuracy 2m. "
"127",8462,13962,"LAMOPE02-HORS-19DEC2023","09:31","",NA,38.083896,NA,121.722156,NA,1.2,NA,NA," 2= against flow","1. No twists; snags; or tears","Boat",NA,NA,NA,"LAMOPE",128.699383986074,"Horseshoe Bend",2023-12-19," "
"128",8384,13844,"LAMOPE02-HORS-21NOV2023","11:14","",NA,38.083985,NA,121.719703,NA,1.4,NA,NA," 2= against flow","1. No twists; snags; or tears","Boat",NA,NA,NA,"LAMOPE",149.151524838822,"Horseshoe Bend",2023-11-21," "
"129",8470,13970,"LAMOPE02-LIBE-20DEC2023","09:23","",NA,38.271501,NA,121.669147,NA,1.1,NA,NA," 2= against flow","1. No twists; snags; or tears","Boat",NA,NA,NA,"LAMOPE",118.217730722742,"Liberty Island",2023-12-20," the 2 larbas jumped out"
"130",7282,12282,"LAMOPE02-LIBE-25JAN2023","09:26","",NA,38.291193,NA,121.678204,NA,1.8,NA,NA," 2= against flow","1. No twists; snags; or tears","Boat",NA,NA,NA,"LAMOPE",188.011143848666,"Liberty Island",2023-01-25," gps 5; accuracy 3m. "
"131",8080,13482,"LAMOPE02-LIBE-25MAY2023","08:39","",NA,38.265562,NA,121.681793,NA,1.3,NA,NA," 2= against flow","1. No twists; snags; or tears","Boat",NA,NA,NA,"LAMOPE",139.010648691434,"Liberty Island",2023-05-25," depth from handheld. gps 6; accuracy 3m. not paired"
"132",7961,13367,"LAMOPE02-LOWE-26APR2023","09:57","",NA,38.339952,NA,121.661973,NA,1.3,NA,NA," 3= unknown","1. No twists; snags; or tears","Crew Members and Boat",NA,NA,NA,"LAMOPE",139.010648691434,"Lower Yolo Ranch",2023-04-26," gps 5; accuracy 3m. not paired. frp23-012 = 2 fish in vial- identified as spltai - ma 9/14/2023"
"133",8028,13431,"LAMOPE02-LOWE-26MAY2023","08:16","",NA,38.349278,NA,121.679687,NA,0.9,NA,NA," 2= against flow","2. Partial twist; snag; or tear","Crew Members and Boat",NA,NA,NA,"LAMOPE",96.7432585221664,"Lower Yolo Ranch",2023-05-26," gps6 accuracy 3m. code 2: narrow. depth from handheld."
"134",8490,13990,"LAMOPE02-NURS-26DEC2023","09:19","",NA,38.182183,NA,121.909109,NA,1.2,NA,NA," 2= against flow","1. No twists; snags; or tears","Boat",NA,NA,NA,"LAMOPE",128.699383986074,"Nurse-Denverton",2023-12-26," "
"135",8422,13902,"LAMOPE02-NURS-28NOV2023","09:51","",NA,38.180405,NA,121.91834,NA,1,NA,NA," 2= against flow","1. No twists; snags; or tears","Boat",NA,NA,NA,"LAMOPE",107.56568890144,"Nurse-Denverton",2023-11-28,"  "
"136",8065,13466,"LAMOPE02-PEYT-03MAY2023","11:21","",NA,38.223489,NA,122.032807,NA,4.8,NA,NA," 2= against flow","2. Partial twist; snag; or tear","Boat",NA,NA,NA,"LAMOPE",332.7,"Peytonia-Suisun",2023-05-03," gps 5; accuracy 2m. not paired. depth from handheld. code 2 - depth"
"137",7464,12484,"LAMOPE02-PEYT-04APR2023","12:59","",NA,38.226724,NA,122.040664,NA,3.7,NA,NA," 2= against flow","2. Partial twist; snag; or tear","Boat",NA,NA,NA,"LAMOPE",332.7,"Peytonia-Suisun",2023-04-04," gps 5; accuracy 2m. not paired. code 2 due to depth. "
"138",7434,12454,"LAMOPE02-PEYT-16MAR2023","08:34","",NA,38.212277,NA,122.035648,NA,3.7,NA,NA," 2= against flow","2. Partial twist; snag; or tear","Boat",NA,NA,NA,"LAMOPE",332.7,"Peytonia-Suisun",2023-03-16," gps 5; accuracy 2m. not paired. code 2 b/c of depth"
"139",7266,12270,"LAMOPE02-PEYT-19JAN2023","08:00","",NA,38.222181,NA,122.04348,NA,3,NA,NA," 2= against flow","1. No twists; snags; or tears","Boat",NA,NA,NA,"LAMOPE",288.23269931296,"Peytonia-Suisun",2023-01-19," "
"140",8502,14002,"LAMOPE02-PEYT-29DEC2023","09:55","",NA,38.217019,NA,122.03299,NA,1.2,NA,NA," 2= against flow","1. No twists; snags; or tears","Boat",NA,NA,NA,"LAMOPE",128.699383986074,"Peytonia-Suisun",2023-12-29," "
"141",8434,13916,"LAMOPE02-STAI-06DEC2023","08:39","",NA,38.325224,NA,121.684328,NA,1.4,NA,NA," 2= against flow","2. Partial twist; snag; or tear","Boat",NA,NA,NA,"LAMOPE",149.151524838822,"Stairsteps-Liberty Cut",2023-12-06," code 2: distance to set out net was short; had to turn to let out all net; prop hit bottom; took longer to set out"
"142",7402,12422,"LAMOPE02-STAI-17MAR2023","09:46","",NA,38.329053,NA,121.679236,NA,7.7,NA,NA," 2= against flow","2. Partial twist; snag; or tear","Boat",NA,NA,NA,"LAMOPE",332.7,"Stairsteps-Liberty Cut",2023-03-17," gps 5; accuracy 2m. not paired. very high flow. code 2: depth"
"143",8374,13815,"LAMOPE02-STAI-20NOV2023","09:25","",NA,38.326862,NA,121.667248,NA,6.3,NA,NA," 2= against flow","2. Partial twist; snag; or tear","Boat",NA,NA,NA,"LAMOPE",332.7,"Stairsteps-Liberty Cut",2023-11-20," code 2: depth"
"144",8042,13442,"LAMOPE02-STAI-27APR2023","09:23","",NA,38.329154,NA,121.678457,NA,2.7,NA,NA," 2= against flow","1. No twists; snags; or tears","Boat",NA,NA,NA,"LAMOPE",265.477555979498,"Stairsteps-Liberty Cut",2023-04-27," gps 5; accuracy 3m. depth from handheld"
"145",8481,13981,"LAMOPE02-TULE-22DEC2023","09:51","",NA,38.123868,NA,121.979747,NA,1.7,NA,NA," 2= against flow","1. No twists; snags; or tears","Boat",NA,NA,NA,"LAMOPE",178.551821933162,"Tule Red",2023-12-22," "
"146",7293,12293,"LAMOPE02-TULE-26JAN2023","08:25","",NA,38.127657,NA,121.987201,NA,2,NA,NA," 2= against flow","1. No twists; snags; or tears","Boat",NA,NA,NA,"LAMOPE",206.41862200576,"Tule Red",2023-01-26," not paired. gps 5; accuracy 2m "
"147",7342,12362,"LAMOPE02-TULE-28FEB2023","08:40","",NA,38.127465,NA,121.987033,NA,2.3,NA,NA," 2= against flow","1. No twists; snags; or tears","Boat",NA,NA,NA,"LAMOPE",232.751925056618,"Tule Red",2023-02-28," gps 5; accuracy 2m. not paired."
"148",7251,12254,"LAMOPE02-WINT-12JAN2023","08:44","",NA,38.044494,NA,121.846909,NA,3.9,NA,NA," 2= against flow","2. Partial twist; snag; or tear","Boat",NA,NA,NA,"LAMOPE",332.7,"Winter Island",2023-01-12," gps 5; accuracy 2m. not paired. seine code 2 due to depth; fixed hole on lead line (~4in) after sample"
"149",7370,12390,"LAMOPE02-WINT-15MAR2023","09:35","",NA,38.036755,NA,121.845504,NA,2.4,NA,NA," 2= against flow","1. No twists; snags; or tears","Boat",NA,NA,NA,"LAMOPE",241.188915624294,"Winter Island",2023-03-15," gps 5. not paired. "
"150",7355,12375,"LAMOPE02-WTIB-02MAR2023","09:06","",NA,38.094484,NA,121.587976,NA,8.5,NA,NA," 2= against flow","2. Partial twist; snag; or tear","Boat",NA,NA,NA,"LAMOPE",332.7,"Webb Tract Island and Berms",2023-03-02," gps 5; accuracy 2m. not paired. code 2 - depth"
"151",7697,12757,"LAMOPE02-WTIB-12APR2023","15:49","",NA,38.094666,NA,121.577413,NA,7.5,NA,NA," 2= against flow","2. Partial twist; snag; or tear","Boat",NA,NA,NA,"LAMOPE",332.7,"Webb Tract Island and Berms",2023-04-12," gps 6; accuracy 3m. paired. gps calculated in 2023 sample inventory ed9/11/23"
"152",7314,12314,"LAMOPE03-BROA-02FEB2023","09:17","",NA,38.052573,NA,121.849001,NA,3.8,NA,NA," 2= against flow","2. Partial twist; snag; or tear","Boat",NA,NA,NA,"LAMOPE",332.7,"Broad Slough",2023-02-02," not paired. gps 5; accuracy 2m. code 2: depth"
"153",8442,13927,"LAMOPE03-BROA-11DEC2023","08:25","",NA,38.042538,NA,121.845554,NA,1.7,NA,NA," 2= against flow","1. No twists; snags; or tears","Boat",NA,NA,NA,"LAMOPE",178.551821933162,"Broad Slough",2023-12-11," "
"154",8351,13791,"LAMOPE03-BROA-15NOV2023","09:32","",NA,38.059341,NA,121.849144,NA,7.4,NA,NA," 2= against flow","2. Partial twist; snag; or tear","Boat",NA,NA,NA,"LAMOPE",332.7,"Broad Slough",2023-11-15," code 2: depth"
"155",8013,13413,"LAMOPE03-BROA-18MAY2023","09:36","",NA,38.053578,NA,121.849656,NA,2.5,NA,NA," 2= against flow","1. No twists; snags; or tears","Boat",NA,NA,NA,"LAMOPE",249.455517634,"Broad Slough",2023-05-18," gps 6 accuracy 3m. depth from handheld all day."
"156",7245,12245,"LAMOPE03-DECK-03JAN2023","11:20","",NA,38.084279,NA,121.724097,NA,1.6,NA,NA," 2= against flow","1. No twists; snags; or tears","Boat",NA,NA,NA,"LAMOPE",168.922111459686,"Decker Island",2023-01-03," gps 6; accuracy 3m. not paired. dominant vegetation in net: hyacinth. gps manually corrected from geo-tagged photos from that day - ed 21jul2023"
"157",8081,13483,"LAMOPE03-FLYW-25MAY2023","09:31","",NA,38.360903,NA,121.645822,NA,1.5,NA,NA," 2= against flow","1. No twists; snags; or tears","Crew Members and Boat",NA,NA,NA,"LAMOPE",159.12201242824,"Flyway Farms",2023-05-25," gps 6 accuracy 3m. depth from handheld. crapp spp could be black crappie. a good number of splitt had died. no count for misshr written down"
"158",7783,12843,"LAMOPE03-GRIZ-18APR2023","09:25","",NA,38.13424,NA,122.001791,NA,1,NA,NA," 3= unknown","1. No twists; snags; or tears","Boat",NA,NA,NA,"LAMOPE",107.56568890144,"Grizzly Bay",2023-04-18," paired y . gps calculated in 2023 sample inventory - ed 9/7/2023"
"159",7423,12443,"LAMOPE03-GRIZ-20MAR2023","10:33","",NA,38.119398,NA,121.990999,NA,1.9,NA,NA," 2= against flow","1. No twists; snags; or tears","Boat",NA,NA,NA,"LAMOPE",197.300077206198,"Grizzly Bay",2023-03-20," gps 5; accuracy 2m. "
"160",8412,13873,"LAMOPE03-GRIZ-27NOV2023","09:44","",NA,38.130337,NA,121.996999,NA,1.4,NA,NA," 2= against flow","1. No twists; snags; or tears","Boat",NA,NA,NA,"LAMOPE",149.151524838822,"Grizzly Bay",2023-11-27," "
"161",7320,12320,"LAMOPE03-HORS-08FEB2023","09:05","",NA,38.082879,NA,121.730635,NA,4,NA,NA," 2= against flow","2. Partial twist; snag; or tear","Boat",NA,NA,NA,"LAMOPE",332.7,"Horseshoe Bend",2023-02-08," not paired. gps 5; accuracy 7m. code 2 - depth"
"162",8463,13963,"LAMOPE03-HORS-19DEC2023","10:02","",NA,38.084136,NA,121.7187,NA,1.3,NA,NA," 2= against flow","1. No twists; snags; or tears","Boat",NA,NA,NA,"LAMOPE",139.010648691434,"Horseshoe Bend",2023-12-19," "
"163",8385,13845,"LAMOPE03-HORS-21NOV2023","11:39","",NA,38.082882,NA,121.725291,NA,3.5,NA,NA," 2= against flow","1. No twists; snags; or tears","Boat",NA,NA,NA,"LAMOPE",322.75016704264,"Horseshoe Bend",2023-11-21," "
"164",7368,12388,"LAMOPE03-LIBE-08MAR2023","13:51","",NA,38.287551,NA,121.691273,NA,1.1,NA,NA," 2= against flow","1. No twists; snags; or tears","Boat",NA,NA,NA,"LAMOPE",118.217730722742,"Liberty Island",2023-03-08," gps 5; accuracy 2m. not paired. clam unid pics - id sphaeriidae ; plikely musculium dd 2/02/2024"
"165",8471,13971,"LAMOPE03-LIBE-20DEC2023","09:53","",NA,38.285499,NA,121.667779,NA,1.8,NA,NA," 2= against flow","1. No twists; snags; or tears","Boat",NA,NA,NA,"LAMOPE",188.011143848666,"Liberty Island",2023-12-20," "
"166",8375,13816,"LAMOPE03-LOWE-20NOV2023","10:16","",NA,38.356701,NA,121.659033,NA,1.4,NA,NA," 2= against flow","1. No twists; snags; or tears","Boat",NA,NA,NA,"LAMOPE",149.151524838822,"Lower Yolo Ranch",2023-11-20," g30 (??) for redear was other (emma has a photo). operculum very damaged. lengths are off by 10mm for some. "
"167",7283,12283,"LAMOPE03-LOWE-25JAN2023","10:30","",NA,38.349324,NA,121.679599,NA,1.2,NA,NA," 1= with flow","2. Partial twist; snag; or tear","Crew Members and Boat",NA,NA,NA,"LAMOPE",128.699383986074,"Lower Yolo Ranch",2023-01-25," not paired. gps 5; accuracy 2m. physically cannot turn boat around to tow against (code 2). 57 prickly sculpin was very gravid. "
"168",7962,13368,"LAMOPE03-LOWE-26APR2023","10:36","",NA,38.352992,NA,121.656399,NA,1.7,NA,NA," 2= against flow","1. No twists; snags; or tears","Crew Members and Boat",NA,NA,NA,"LAMOPE",178.551821933162,"Lower Yolo Ranch",2023-04-26," gps 5. accuracy 3m. not paired. 1 exopal in first tow; depth from handheld. first tow was in wrong direction; reset and started again against flow"
"169",8029,13433,"LAMOPE03-LOWE-26MAY2023","10:02","",NA,38.354164,NA,121.654948,NA,1.2,NA,NA," 2= against flow","2. Partial twist; snag; or tear","Boat",NA,NA,NA,"LAMOPE",128.699383986074,"Lower Yolo Ranch",2023-05-26," gps 6 accuracy 3m. code 2: twist in one wing. depth from handheld."
"170",8491,13991,"LAMOPE03-NURS-26DEC2023","09:42","",NA,38.191616,NA,121.907075,NA,1.4,NA,NA," 2= against flow","1. No twists; snags; or tears","Boat",NA,NA,NA,"LAMOPE",149.151524838822,"Nurse-Denverton",2023-12-26," "
"171",8423,13903,"LAMOPE03-NURS-28NOV2023","10:35","",NA,38.191506,NA,121.904264,NA,1.3,NA,NA," 2= against flow","1. No twists; snags; or tears","Boat",NA,NA,NA,"LAMOPE",139.010648691434,"Nurse-Denverton",2023-11-28," "
"172",8066,13467,"LAMOPE03-PEYT-03MAY2023","11:34","",NA,38.226807,NA,122.035614,NA,2.4,NA,NA," 2= against flow","1. No twists; snags; or tears","Boat",NA,NA,NA,"LAMOPE",241.188915624294,"Peytonia-Suisun",2023-05-03," gps 5; accuracy 3m. not paired. depth from handheld"
"173",8503,14003,"LAMOPE03-PEYT-29DEC2023","10:18","",NA,38.220525,NA,122.031851,NA,1.4,NA,NA," 2= against flow","1. No twists; snags; or tears","Boat",NA,NA,NA,"LAMOPE",149.151524838822,"Peytonia-Suisun",2023-12-29," dead tule in net"
"174",8435,13917,"LAMOPE03-STAI-06DEC2023","09:16","",NA,38.316512,NA,121.667482,NA,3.7,NA,NA," 2= against flow","2. Partial twist; snag; or tear","Boat",NA,NA,NA,"LAMOPE",332.7,"Stairsteps-Liberty Cut",2023-12-06," deploying at edge of shoal; depth is dropping (~3.3 to 5.5) = code 2"
"175",7403,12423,"LAMOPE03-STAI-17MAR2023","10:05","",NA,38.321763,NA,121.686929,NA,5,NA,NA," 2= against flow","2. Partial twist; snag; or tear","Boat",NA,NA,NA,"LAMOPE",332.7,"Stairsteps-Liberty Cut",2023-03-17," gps 5; accuracy 7m. not paired. very high flow; net was very narrowly opened. code 2: depth"
"176",8043,13445,"LAMOPE03-STAI-27APR2023","09:41","",NA,38.33593,NA,121.667991,NA,3.7,NA,NA," 2= against flow","2. Partial twist; snag; or tear","Boat",NA,NA,NA,"LAMOPE",332.7,"Stairsteps-Liberty Cut",2023-04-27," gps 5; accuracy 3m. depth from handheld. code 2: depth"
"177",8004,13404,"LAMOPE03-TULE-16MAY2023","10:08","",NA,38.131352,NA,121.99099,NA,1.6,NA,NA," 2= against flow","1. No twists; snags; or tears","Boat",NA,NA,NA,"LAMOPE",168.922111459686,"Tule Red",2023-05-16," depth from handheld. gps 6 accuracy 3m"
"178",8482,13982,"LAMOPE03-TULE-22DEC2023","10:38","",NA,38.123554,NA,121.984023,NA,2.5,NA,NA," 2= against flow","1. No twists; snags; or tears","Boat",NA,NA,NA,"LAMOPE",249.455517634,"Tule Red",2023-12-22," "
"179",7294,12294,"LAMOPE03-TULE-26JAN2023","08:49","",NA,38.133493,NA,121.992418,NA,1.8,NA,NA," 2= against flow","1. No twists; snags; or tears","Boat",NA,NA,NA,"LAMOPE",188.011143848666,"Tule Red",2023-01-26," not paired. gps 5. patched another section along float line prior to this sample. depth was shallow; probably 1.4-1.7 avg to 1.5"
"180",7343,12363,"LAMOPE03-TULE-28FEB2023","09:05","",NA,38.121734,NA,121.982853,NA,2.7,NA,NA," 2= against flow","1. No twists; snags; or tears","Boat",NA,NA,NA,"LAMOPE",265.477555979498,"Tule Red",2023-02-28,"  not paired."
"181",7435,12455,"LAMOPE03-WING-16MAR2023","09:00","",NA,38.214311,NA,122.040556,NA,1.1,NA,NA," 2= against flow","1. No twists; snags; or tears","Boat",NA,NA,NA,"LAMOPE",118.217730722742,"Wings Landing",2023-03-16," gps 5. not paired. "
"182",7267,12271,"LAMOPE03-WING-19JAN2023","08:20","",NA,38.222538,NA,122.041185,NA,1.1,NA,NA," 2= against flow","1. No twists; snags; or tears","Boat",NA,NA,NA,"LAMOPE",118.217730722742,"Wings Landing",2023-01-19," gps 5; accuracy 2. not paired"
"183",7483,12523,"LAMOPE03-WINT-05APR2023","10:15","",NA,38.04245,NA,121.84617,NA,2.5,NA,NA," 2= against flow","1. No twists; snags; or tears","Boat",NA,NA,NA,"LAMOPE",249.455517634,"Winter Island",2023-04-05," gps 5; accuracy 2m. not paired. rock with barnacles :)"
"184",7252,12255,"LAMOPE03-WINT-12JAN2023","09:09","",NA,38.031796,NA,121.842607,NA,3.9,NA,NA," 2= against flow","2. Partial twist; snag; or tear","Boat",NA,NA,NA,"LAMOPE",332.7,"Winter Island",2023-01-12," gps 5; accuracy 2m. not paired. seine code 2 due to depth. repaired hole in net on cod end seam (~3in) after sample"
"185",7371,12391,"LAMOPE03-WINT-15MAR2023","09:56","",NA,38.052002,NA,121.854518,NA,2.9,NA,NA," 2= against flow","2. Partial twist; snag; or tear","Boat",NA,NA,NA,"LAMOPE",280.81804009311,"Winter Island",2023-03-15," gps 5; accuracy 2m. not paired. channel was narrow"
"186",7356,12376,"LAMOPE03-WTIB-02MAR2023","09:46","",NA,38.095792,NA,121.586405,NA,1.9,NA,NA," 2= against flow","1. No twists; snags; or tears","Boat",NA,NA,NA,"LAMOPE",197.300077206198,"Webb Tract Island and Berms",2023-03-02," gps 5; accuracy 2m. not paired. "
"187",7698,12758,"LAMOPE03-WTIB-12APR2023","16:06","",NA,38.094831,NA,121.591121,NA,8.8,NA,NA," 2= against flow","2. Partial twist; snag; or tear","Boat",NA,NA,NA,"LAMOPE",332.7,"Webb Tract Island and Berms",2023-04-12," gps 6. accuracy 3m. paired. code 2 - depth. gps calculated 2023 sample inventory ed 9/11/23"
"188",8492,13992,"LAMOPE04-BRAD-26DEC2023","10:20","",NA,38.197421,NA,121.916315,NA,2,NA,NA," 2= against flow","1. No twists; snags; or tears","Boat",NA,NA,NA,"LAMOPE",206.41862200576,"Bradmoor Island",2023-12-26," "
"189",8424,13904,"LAMOPE04-BRAD-28NOV2023","11:17","",NA,38.197471,NA,121.916389,NA,1.6,NA,NA," 2= against flow","1. No twists; snags; or tears","Boat",NA,NA,NA,"LAMOPE",168.922111459686,"Bradmoor Island",2023-11-28," "
"190",7484,12524,"LAMOPE04-BROA-05APR2023","10:45","",NA,38.036832,NA,121.842725,NA,5,NA,NA," 2= against flow","2. Partial twist; snag; or tear","Boat",NA,NA,NA,"LAMOPE",332.7,"Broad Slough",2023-04-05," gps 5; accuracy 2m. not paired. code 2: depth"
"191",7253,12257,"LAMOPE04-BROW-12JAN2023","09:54","",NA,38.040131,NA,121.858524,NA,1.7,NA,NA," 2= against flow","2. Partial twist; snag; or tear","Boat",NA,NA,NA,"LAMOPE",178.551821933162,"Browns Island",2023-01-12," gps 5; accuracy 3m. not paired. cod end 1/4 full of mud and detritus"
"192",7372,12392,"LAMOPE04-BROW-15MAR2023","10:20","",NA,38.032635,NA,121.857042,NA,2.7,NA,NA," 2= against flow","1. No twists; snags; or tears","Boat",NA,NA,NA,"LAMOPE",265.477555979498,"Browns Island",2023-03-15," gps 5; accuracy 2m. not paired. "
"193",8386,13847,"LAMOPE04-DECK-21NOV2023","11:56","",NA,38.084316,NA,121.723936,NA,1.8,NA,NA," 2= against flow","1. No twists; snags; or tears","Boat",NA,NA,NA,"LAMOPE",188.011143848666,"Decker Island",2023-11-21," "
"194",8082,13484,"LAMOPE04-FLYW-25MAY2023","11:24","",NA,38.360824,NA,121.640907,NA,1.3,NA,NA," 2= against flow","1. No twists; snags; or tears","Boat",NA,NA,NA,"LAMOPE",139.010648691434,"Flyway Farms",2023-05-25," depth from handheld. gps 6; accuracy 3m. not paired. hitch confirmed frp23-019"
"195",7344,12364,"LAMOPE04-GRIZ-28FEB2023","09:30","",NA,38.133383,NA,122.007262,NA,2.3,NA,NA," 2= against flow","2. Partial twist; snag; or tear","Boat",NA,NA,NA,"LAMOPE",232.751925056618,"Grizzly Bay",2023-02-28," code 2 = conditions; not finishing grizzly because of conditions (too choppy/rough). gps 5; accuracy 2m. not paired."
"196",8352,13793,"LAMOPE04-HONK-15NOV2023","10:09","",NA,38.061755,NA,121.929427,NA,2.7,NA,NA," 2= against flow","1. No twists; snags; or tears","Boat",NA,NA,NA,"LAMOPE",265.477555979498,"Honker-Spoonbill",2023-11-15," "
"197",8014,13414,"LAMOPE04-HONK-18MAY2023","10:18","",NA,38.055795,NA,121.89569,NA,2.1,NA,NA," 2= against flow","1. No twists; snags; or tears","Boat",NA,NA,NA,"LAMOPE",215.36677824735,"Honker-Spoonbill",2023-05-18," gps 6 accuracy 3m. depth from handheld."
"198",7246,12246,"LAMOPE04-HORS-03JAN2023","11:40","",NA,38.080321,NA,121.728292,NA,2.7,NA,NA," 2= against flow","1. No twists; snags; or tears","Boat",NA,NA,NA,"LAMOPE",265.477555979498,"Horseshoe Bend",2023-01-03," gps 6; accuracy 3m. not paired. dominant vegetation in net: egeden. gps manually updated from geo-tagged photos taken that day - ed 21jul2023 "
"199",8465,13965,"LAMOPE04-HORS-19DEC2023","10:33","",NA,38.094863,NA,121.708539,NA,10.7,NA,NA," 2= against flow","2. Partial twist; snag; or tear","Boat",NA,NA,NA,"LAMOPE",332.7,"Horseshoe Bend",2023-12-19," "
"200",8472,13972,"LAMOPE04-LIBE-20DEC2023","10:28","",NA,38.30074,NA,121.680318,NA,0.9,NA,NA," 2= against flow","1. No twists; snags; or tears","Boat",NA,NA,NA,"LAMOPE",96.7432585221664,"Liberty Island",2023-12-20," "
"201",8436,13921,"LAMOPE04-LOWE-06DEC2023","09:58","",NA,38.343851,NA,121.66458,NA,2.6,NA,NA," 2= against flow","2. Partial twist; snag; or tear","Boat",NA,NA,NA,"LAMOPE",257.551731085734,"Lower Yolo Ranch",2023-12-06," current was quick and had to make a hasty deployment"
"202",8376,13817,"LAMOPE04-LOWE-20NOV2023","11:15","",NA,38.345261,NA,121.669538,NA,1.6,NA,NA," 2= against flow","1. No twists; snags; or tears","Crew Members and Boat",NA,NA,NA,"LAMOPE",168.922111459686,"Lower Yolo Ranch",2023-11-20," "
"203",7284,12284,"LAMOPE04-LOWE-25JAN2023","11:11","",NA,38.355914,NA,121.654825,NA,1.4,NA,NA," 2= against flow","1. No twists; snags; or tears","Boat",NA,NA,NA,"LAMOPE",149.151524838822,"Lower Yolo Ranch",2023-01-25," not paired. gps 5; accuracy 2m. "
"204",7963,13369,"LAMOPE04-LOWE-26APR2023","11:10","",NA,38.353857,NA,121.654431,NA,1.2,NA,NA," 2= against flow","1. No twists; snags; or tears","Crew Members and Boat",NA,NA,NA,"LAMOPE",128.699383986074,"Lower Yolo Ranch",2023-04-26," gps 5; accuracy 2m. not paired. 1 crayfish found in lampara bucket; not counted"
"205",8030,13434,"LAMOPE04-LOWE-26MAY2023","10:37","",NA,38.35691,NA,121.658859,NA,1.3,NA,NA," 2= against flow","1. No twists; snags; or tears","Boat",NA,NA,NA,"LAMOPE",139.010648691434,"Lower Yolo Ranch",2023-05-26," gps 6 accuracy 3m. extra sample taken because of code 2 sample and location of first being so close to stairsteps on a flood tide. depth from handheld."
"206",7465,12487,"LAMOPE04-PEYT-04APR2023","13:47","",NA,38.220179,NA,122.044351,NA,3.6,NA,NA," 2= against flow","2. Partial twist; snag; or tear","Boat",NA,NA,NA,"LAMOPE",332.7,"Peytonia-Suisun",2023-04-04," gps 5; accuracy 3m. code 2: twist in wing at first red buoy. same wq as lamope03-peyt-04apr2023"
"207",7424,12444,"LAMOPE04-RYER-20MAR2023","11:13","",NA,38.079469,NA,122.015878,NA,2.6,NA,NA," 2= against flow","1. No twists; snags; or tears","Boat",NA,NA,NA,"LAMOPE",257.551731085734,"Ryer Island",2023-03-20," gps 5; accuracy 2m. not paired. unid not brough back from previous sample mangled - unid 25mm"
"208",7295,12296,"LAMOPE04-RYER-26JAN2023","09:34","",NA,38.079369,NA,122.011133,NA,1.7,NA,NA," 2= against flow","1. No twists; snags; or tears","Boat",NA,NA,NA,"LAMOPE",178.551821933162,"Ryer Island",2023-01-26," not paired. gps 5; accuracy 2m. first set; code 3 - twist in cod end; reset upstream; same environmentals"
"209",8005,13405,"LAMOPE04-TULE-16MAY2023","10:57","",NA,38.121913,NA,121.982931,NA,2.3,NA,NA," 2= against flow","1. No twists; snags; or tears","Boat",NA,NA,NA,"LAMOPE",232.751925056618,"Tule Red",2023-05-16," gps 6 accuracy 3m. depth from handheld"
"210",7785,12845,"LAMOPE04-TULE-18APR2023","10:37","",NA,38.124128,NA,121.984319,NA,1.9,NA,NA," 2= against flow","1. No twists; snags; or tears","Boat",NA,NA,NA,"LAMOPE",197.300077206198,"Tule Red",2023-04-18," paired n . gps calculated in 2023 sample inventory - ed 9/7/2023. one thrsti found on deck prior to next sample; plus counted and released"
"211",8483,13983,"LAMOPE04-TULE-22DEC2023","11:06","",NA,38.128837,NA,121.988336,NA,2.7,NA,NA," 2= against flow","1. No twists; snags; or tears","Boat",NA,NA,NA,"LAMOPE",265.477555979498,"Tule Red",2023-12-22," "
"212",8068,13469,"LAMOPE04-WING-03MAY2023","12:47","",NA,38.215288,NA,122.03602,NA,0.9,NA,NA," 2= against flow","1. No twists; snags; or tears","Boat",NA,NA,NA,"LAMOPE",96.7432585221664,"Wings Landing",2023-05-03," depth from handheld. gps 5. not paired"
"213",7436,12456,"LAMOPE04-WING-16MAR2023","09:15","",NA,38.21567,NA,122.03584,NA,1.2,NA,NA," 2= against flow","1. No twists; snags; or tears","Boat",NA,NA,NA,"LAMOPE",128.699383986074,"Wings Landing",2023-03-16," gps 5; accuracy 2m. not paired."
"214",7268,12272,"LAMOPE04-WING-19JAN2023","08:35","",NA,38.220765,NA,122.041146,NA,1.1,NA,NA," 2= against flow","1. No twists; snags; or tears","Boat",NA,NA,NA,"LAMOPE",118.217730722742,"Wings Landing",2023-01-19," gps 5; accuracy 2. not paired."
"215",8504,14004,"LAMOPE04-WING-29DEC2023","10:45","",NA,38.222388,NA,122.034882,NA,1.3,NA,NA," 2= against flow","2. Partial twist; snag; or tear","Boat",NA,NA,NA,"LAMOPE",139.010648691434,"Wings Landing",2023-12-29," code 2: deployed kind of weirdly"
"216",7315,12315,"LAMOPE04-WINT-02FEB2023","09:40","",NA,38.05269,NA,121.854722,NA,3.8,NA,NA," 2= against flow","2. Partial twist; snag; or tear","Boat",NA,NA,NA,"LAMOPE",332.7,"Winter Island",2023-02-02," not paired. gps 5; accuracy 3m. very strong current. code 2: depth and net got shaped weirdly because of current"
"217",8443,13928,"LAMOPE04-WINT-11DEC2023","08:52","",NA,38.043445,NA,121.846432,NA,2.3,NA,NA," 2= against flow","1. No twists; snags; or tears","Boat",NA,NA,NA,"LAMOPE",232.751925056618,"Winter Island",2023-12-11," ribbon weed trace in net; refer to gps for location"
"218",7321,12321,"LAMOPE04-WTIB-08FEB2023","10:02","",NA,38.095206,NA,121.591541,NA,2.8,NA,NA," 2= against flow","1. No twists; snags; or tears","Boat",NA,NA,NA,"LAMOPE",273.23299231529,"Webb Tract Island and Berms",2023-02-08," not paired. gps 5; accuracy 2m. dominant vegetation in net: egeria; cerdem; carolina fanwort; trace; pics"
"219",8493,13993,"LAMOPE05-BRAD-26DEC2023","10:41","",NA,38.195853,NA,121.920448,NA,1.3,NA,NA," 2= against flow","1. No twists; snags; or tears","Boat",NA,NA,NA,"LAMOPE",139.010648691434,"Bradmoor Island",2023-12-26," "
"220",8425,13905,"LAMOPE05-BRAD-28NOV2023","11:48","",NA,38.196541,NA,121.920935,NA,2.5,NA,NA," 2= against flow","2. Partial twist; snag; or tear","Boat",NA,NA,NA,"LAMOPE",249.455517634,"Bradmoor Island",2023-11-28," code 2 = narrow; high current"
"221",7254,12258,"LAMOPE05-BROW-12JAN2023","10:27","",NA,38.039703,NA,121.864099,NA,4.1,NA,NA," 2= against flow","2. Partial twist; snag; or tear","Boat",NA,NA,NA,"LAMOPE",332.7,"Browns Island",2023-01-12," gps 5; accuracy 3m. not paired. seine code 2 due to depth."
"222",7373,12393,"LAMOPE05-BROW-15MAR2023","10:53","",NA,38.038591,NA,121.863868,NA,5.3,NA,NA," 2= against flow","2. Partial twist; snag; or tear","Boat",NA,NA,NA,"LAMOPE",332.7,"Browns Island",2023-03-15," gps 5; accuracy 2m. not paired. code 2: deep."
"223",8473,13973,"LAMOPE05-FLYW-20DEC2023","11:29","",NA,38.360708,NA,121.64039,NA,1.7,NA,NA," 2= against flow","1. No twists; snags; or tears","Boat",NA,NA,NA,"LAMOPE",178.551821933162,"Flyway Farms",2023-12-20," "
"224",7964,13370,"LAMOPE05-FLYW-26APR2023","11:55","",NA,38.360897,NA,121.643492,NA,1.2,NA,NA," 2= against flow","1. No twists; snags; or tears","Crew Members and Boat",NA,NA,NA,"LAMOPE",128.699383986074,"Flyway Farms",2023-04-26," gps 5 accuracy 2m"
"225",8484,13984,"LAMOPE05-GRIZ-22DEC2023","11:38","",NA,38.122429,NA,122.004253,NA,2.9,NA,NA," 2= against flow","1. No twists; snags; or tears","Boat",NA,NA,NA,"LAMOPE",280.81804009311,"Grizzly Bay",2023-12-22," missil found on deck. could be from a previous sample."
"226",7485,12525,"LAMOPE05-HONK-05APR2023","11:36","",NA,38.075266,NA,121.920321,NA,1.9,NA,NA," 2= against flow","1. No twists; snags; or tears","Boat",NA,NA,NA,"LAMOPE",197.300077206198,"Honker-Spoonbill",2023-04-05," gps 5; accuracy 2m. not paired. depth from handheld"
"227",8353,13794,"LAMOPE05-HONK-15NOV2023","10:29","",NA,38.064855,NA,121.933517,NA,2.9,NA,NA," 2= against flow","1. No twists; snags; or tears","Boat",NA,NA,NA,"LAMOPE",280.81804009311,"Honker-Spoonbill",2023-11-15," detritus in cod end"
"228",8015,13415,"LAMOPE05-HONK-18MAY2023","10:46","",NA,38.070212,NA,121.911795,NA,3.6,NA,NA," 2= against flow","1. No twists; snags; or tears","Boat",NA,NA,NA,"LAMOPE",332.7,"Honker-Spoonbill",2023-05-18," gps 6 accuracy 3m. depth from handheld."
"229",7360,12380,"LAMOPE05-HORS-02MAR2023","12:47","",NA,38.083763,NA,121.723609,NA,1.5,NA,NA," 2= against flow","1. No twists; snags; or tears","Boat",NA,NA,NA,"LAMOPE",159.12201242824,"Horseshoe Bend",2023-03-02," gps 5; accuracy 2m. not paired. "
"230",8387,13848,"LAMOPE05-LIBE-21NOV2023","12:49","",NA,38.275638,NA,121.668239,NA,2.2,NA,NA," 2= against flow","1. No twists; snags; or tears","Boat",NA,NA,NA,"LAMOPE",224.14454593097,"Liberty Island",2023-11-21," "
"231",8437,13922,"LAMOPE05-LOWE-06DEC2023","11:04","",NA,38.350772,NA,121.66053,NA,3.1,NA,NA," 2= against flow","1. No twists; snags; or tears","Boat",NA,NA,NA,"LAMOPE",295.476969974838,"Lower Yolo Ranch",2023-12-06," potential hardhead put in etoh; ided in lab as golshi 12/28/2023"
"232",8377,13818,"LAMOPE05-LOWE-20NOV2023","12:07","",NA,38.344263,NA,121.666803,NA,1.9,NA,NA," 2= against flow","1. No twists; snags; or tears","Crew Members and Boat",NA,NA,NA,"LAMOPE",197.300077206198,"Lower Yolo Ranch",2023-11-20," "
"233",7285,12285,"LAMOPE05-LOWE-25JAN2023","11:49","",NA,38.348953,NA,121.662624,NA,2.9,NA,NA," 2= against flow","1. No twists; snags; or tears","Boat",NA,NA,NA,"LAMOPE",280.81804009311,"Lower Yolo Ranch",2023-01-25," not paired. gps 5; accuracy 2m. strong ebb. "
"234",7466,12488,"LAMOPE05-NURS-04APR2023","14:57","",NA,38.177735,NA,121.919703,NA,6.1,NA,NA," 2= against flow","2. Partial twist; snag; or tear","Boat",NA,NA,NA,"LAMOPE",332.7,"Nurse-Denverton",2023-04-04," gps 5. accuracy 2m. not paired. code 2 due to depth"
"235",7425,12445,"LAMOPE05-RYER-20MAR2023","11:34","",NA,38.085896,NA,122.020778,NA,2.8,NA,NA," 2= against flow","1. No twists; snags; or tears","Boat",NA,NA,NA,"LAMOPE",273.23299231529,"Ryer Island",2023-03-20," gps 5; accuracy 2m. not paired"
"236",7301,12301,"LAMOPE05-RYER-26JAN2023","09:49","",NA,38.081122,NA,122.017596,NA,4.1,NA,NA," 2= against flow","2. Partial twist; snag; or tear","Boat",NA,NA,NA,"LAMOPE",332.7,"Ryer Island",2023-01-26," not paired. gps 5; accuracy 2m. code 2 - depth"
"237",7345,12365,"LAMOPE05-RYER-28FEB2023","10:22","",NA,38.082984,NA,122.007132,NA,1.6,NA,NA," 2= against flow","1. No twists; snags; or tears","Boat",NA,NA,NA,"LAMOPE",168.922111459686,"Ryer Island",2023-02-28," unid clam - stepped on. gps 5; accuracy 2m. not paired."
"238",8032,13436,"LAMOPE05-STAI-26MAY2023","12:12","",NA,38.33639,NA,121.666155,NA,2.5,NA,NA," 2= against flow","1. No twists; snags; or tears","Boat",NA,NA,NA,"LAMOPE",249.455517634,"Stairsteps-Liberty Cut",2023-05-26," gps 6 accuracy 3m. all smelt collected in etoh. depth from handheld."
"239",8006,13406,"LAMOPE05-TULE-16MAY2023","11:35","",NA,38.123871,NA,121.984211,NA,1.7,NA,NA," 2= against flow","1. No twists; snags; or tears","Boat",NA,NA,NA,"LAMOPE",178.551821933162,"Tule Red",2023-05-16," gps 6 accuracy 3m. depth from handheld"
"240",7786,12846,"LAMOPE05-TULE-18APR2023","11:05","",NA,38.120766,NA,121.981685,NA,1.7,NA,NA," 2= against flow","2. Partial twist; snag; or tear","Crew Members and Boat",NA,NA,NA,"LAMOPE",178.551821933162,"Tule Red",2023-04-18," code 2: narrow. paired n. thrsti found on deck prior to next sample. gps calculated in 2023 sample inventory - ed 9/7/2023"
"241",8414,13877,"LAMOPE05-TULE-27NOV2023","10:42","",NA,38.122346,NA,121.983209,NA,3.6,NA,NA," 2= against flow","1. No twists; snags; or tears","Boat",NA,NA,NA,"LAMOPE",332.7,"Tule Red",2023-11-27," "
"242",8069,13470,"LAMOPE05-WING-03MAY2023","13:00","",NA,38.215491,NA,122.036826,NA,0.9,NA,NA," 2= against flow","1. No twists; snags; or tears","Boat",NA,NA,NA,"LAMOPE",96.7432585221664,"Wings Landing",2023-05-03," depth from handheld. gps 5; accuracy 2m. not paired"
"243",7437,12457,"LAMOPE05-WING-16MAR2023","09:40","",NA,38.222018,NA,122.039636,NA,1.4,NA,NA," 2= against flow","1. No twists; snags; or tears","Boat",NA,NA,NA,"LAMOPE",149.151524838822,"Wings Landing",2023-03-16," gps 5; accuracy 2m. not paired. thrsti @ 43: frp23-517"
"244",7269,12273,"LAMOPE05-WING-19JAN2023","08:49","",NA,38.219083,NA,122.039343,NA,1.4,NA,NA," 2= against flow","1. No twists; snags; or tears","Boat",NA,NA,NA,"LAMOPE",149.151524838822,"Wings Landing",2023-01-19," gps 5; accuracy 2. not paired"
"245",8505,14005,"LAMOPE05-WING-29DEC2023","11:03","",NA,38.222979,NA,122.035593,NA,0.8,NA,NA," 2= against flow","2. Partial twist; snag; or tear","Boat",NA,NA,NA,"LAMOPE",85.7504395849216,"Wings Landing",2023-12-29," code 2: mud!"
"246",7316,12316,"LAMOPE05-WINT-02FEB2023","10:02","",NA,38.051769,NA,121.851131,NA,1.3,NA,NA," 2= against flow","1. No twists; snags; or tears","Boat",NA,NA,NA,"LAMOPE",139.010648691434,"Winter Island",2023-02-02," not paired. gps 5; accuracy 2m. "
"247",8444,13929,"LAMOPE05-WINT-11DEC2023","09:32","",NA,38.033523,NA,121.843653,NA,2.8,NA,NA," 2= against flow","1. No twists; snags; or tears","Boat",NA,NA,NA,"LAMOPE",273.23299231529,"Winter Island",2023-12-11," "
"248",7247,12247,"LAMOPE05-WTIB-03JAN2023","12:40","",NA,38.095686,NA,121.591478,NA,12.3,NA,NA," 2= against flow","2. Partial twist; snag; or tear","Boat",NA,NA,NA,"LAMOPE",332.7,"Webb Tract Island and Berms",2023-01-03," gps 6; accuracy 3m. not paired. code 2- depth. gps calculated and fixed in 2023 sample inventory - ed 21jul2023"
"249",7322,12322,"LAMOPE05-WTIB-08FEB2023","10:44","",NA,38.096114,NA,121.589807,NA,1.6,NA,NA," 2= against flow","2. Partial twist; snag; or tear","Boat",NA,NA,NA,"LAMOPE",168.922111459686,"Webb Tract Island and Berms",2023-02-08," not paired. gps 5; accuracy 2m. a lot of veg - code 2. "
"250",8466,13966,"LAMOPE05-WTIB-19DEC2023","11:59","",NA,38.094925,NA,121.582474,NA,8.7,NA,NA," 2= against flow","2. Partial twist; snag; or tear","Boat",NA,NA,NA,"LAMOPE",332.7,"Webb Tract Island and Berms",2023-12-19," code 2 = depth"
"251",8494,13994,"LAMOPE06-BRAD-26DEC2023","11:14","",NA,38.184654,NA,121.924086,NA,1,NA,NA," 2= against flow","1. No twists; snags; or tears","Boat",NA,NA,NA,"LAMOPE",107.56568890144,"Bradmoor Island",2023-12-26," "
"252",8426,13906,"LAMOPE06-BRAD-28NOV2023","12:17","",NA,38.183681,NA,121.924219,NA,1.4,NA,NA," 2= against flow","1. No twists; snags; or tears","Boat",NA,NA,NA,"LAMOPE",149.151524838822,"Bradmoor Island",2023-11-28," "
"253",7255,12259,"LAMOPE06-BROW-12JAN2023","10:52","",NA,38.042799,NA,121.871486,NA,2.9,NA,NA," 2= against flow","1. No twists; snags; or tears","Boat",NA,NA,NA,"LAMOPE",280.81804009311,"Browns Island",2023-01-12," gps 5; accuracy 2m. not paired. fish collections: frp23-001 hitch 290 0 fin clip etoh; frp23-500 chisal-f 37 0 whole ice; frp23-501 thrsti 44 0 whole etoh"
"254",7374,12394,"LAMOPE06-BROW-15MAR2023","11:06","",NA,38.038218,NA,121.861419,NA,4.4,NA,NA," 2= against flow","2. Partial twist; snag; or tear","Boat",NA,NA,NA,"LAMOPE",332.7,"Browns Island",2023-03-15," gps 5; accuracy 2m. not paired. code 2: depth"
"255",8354,13795,"LAMOPE06-CHIP-15NOV2023","11:13","",NA,38.057229,NA,121.920031,NA,3.5,NA,NA," 2= against flow","1. No twists; snags; or tears","Boat",NA,NA,NA,"LAMOPE",322.75016704264,"Chipps Island",2023-11-15," "
"256",7361,12381,"LAMOPE06-DECK-02MAR2023","13:06","",NA,38.084295,NA,121.724026,NA,1.7,NA,NA," 2= against flow","2. Partial twist; snag; or tear","Boat",NA,NA,NA,"LAMOPE",178.551821933162,"Decker Island",2023-03-02," gps 5; accuracy 2m. not paired."
"257",8475,13975,"LAMOPE06-FLYW-20DEC2023","12:03","",NA,38.360864,NA,121.646014,NA,1.1,NA,NA," 2= against flow","1. No twists; snags; or tears","Boat",NA,NA,NA,"LAMOPE",118.217730722742,"Flyway Farms",2023-12-20," "
"258",7286,12286,"LAMOPE06-FLYW-25JAN2023","12:24","",NA,38.365055,NA,121.642861,NA,1.8,NA,NA," 2= against flow","1. No twists; snags; or tears","Boat",NA,NA,NA,"LAMOPE",188.011143848666,"Flyway Farms",2023-01-25," not paired. gps 5; accuracy 2m. splittail has tubercles on head"
"259",7965,13371,"LAMOPE06-FLYW-26APR2023","12:45","",NA,38.363372,NA,121.643139,NA,0.9,NA,NA," 2= against flow","1. No twists; snags; or tears","Crew Members and Boat",NA,NA,NA,"LAMOPE",96.7432585221664,"Flyway Farms",2023-04-26," gps 5; accuracy 2m. not paired. depth from handheld"
"260",8007,13407,"LAMOPE06-GRIZ-16MAY2023","12:05","",NA,38.117991,NA,122.001085,NA,2.6,NA,NA," 2= against flow","1. No twists; snags; or tears","Boat",NA,NA,NA,"LAMOPE",257.551731085734,"Grizzly Bay",2023-05-16," gps 6 accuracy 3m. depth from handheld"
"261",8485,13985,"LAMOPE06-GRIZ-22DEC2023","12:11","",NA,38.117302,NA,122.002323,NA,2.7,NA,NA," 2= against flow","1. No twists; snags; or tears","Boat",NA,NA,NA,"LAMOPE",265.477555979498,"Grizzly Bay",2023-12-22," "
"262",7486,12526,"LAMOPE06-HONK-05APR2023","11:57","",NA,38.073458,NA,121.928656,NA,2.3,NA,NA," 2= against flow","1. No twists; snags; or tears","Boat",NA,NA,NA,"LAMOPE",232.751925056618,"Honker-Spoonbill",2023-04-05," gps 5; accuracy 2m. not paired. handheld depthfinder"
"263",8016,13416,"LAMOPE06-HONK-18MAY2023","11:07","",NA,38.059799,NA,121.90732,NA,6.9,NA,NA," 2= against flow","2. Partial twist; snag; or tear","Boat",NA,NA,NA,"LAMOPE",332.7,"Honker-Spoonbill",2023-05-18," gps 6 accuracy 3m. depth from handheld. code 2: depth"
"264",8388,13849,"LAMOPE06-LIBE-21NOV2023","13:06","",NA,38.274771,NA,121.681883,NA,2.5,NA,NA," 2= against flow","1. No twists; snags; or tears","Boat",NA,NA,NA,"LAMOPE",249.455517634,"Liberty Island",2023-11-21," "
"265",8439,13924,"LAMOPE06-LOWE-06DEC2023","13:13","",NA,38.349258,NA,121.667329,NA,2.1,NA,NA," 2= against flow","1. No twists; snags; or tears","Boat",NA,NA,NA,"LAMOPE",215.36677824735,"Lower Yolo Ranch",2023-12-06," "
"266",7467,12489,"LAMOPE06-NURS-04APR2023","15:10","",NA,38.182444,NA,121.915728,NA,1.2,NA,NA," 2= against flow","1. No twists; snags; or tears","Boat",NA,NA,NA,"LAMOPE",128.699383986074,"Nurse-Denverton",2023-04-04," gps 5; accuracy 2m. not paired. "
"267",7438,12458,"LAMOPE06-PEYT-16MAR2023","10:05","",NA,38.221715,NA,122.04398,NA,4,NA,NA," 2= against flow","2. Partial twist; snag; or tear","Boat",NA,NA,NA,"LAMOPE",332.7,"Peytonia-Suisun",2023-03-16," gps 5; accuracy 2m. not paired.  code 2: depth"
"268",7270,12274,"LAMOPE06-PEYT-19JAN2023","09:15","",NA,38.210755,NA,122.035481,NA,1.6,NA,NA," 2= against flow","1. No twists; snags; or tears","Boat",NA,NA,NA,"LAMOPE",168.922111459686,"Peytonia-Suisun",2023-01-19," gps 5; accuracy 3. not paired. pulled net through tule (californicus). frp23-504 thrsti @32"
"269",8506,14006,"LAMOPE06-PEYT-29DEC2023","12:08","",NA,38.226491,NA,122.038288,NA,4.5,NA,NA," 2= against flow","2. Partial twist; snag; or tear","Boat",NA,NA,NA,"LAMOPE",332.7,"Peytonia-Suisun",2023-12-29," code 2: depth"
"270",7426,12446,"LAMOPE06-RYER-20MAR2023","11:56","",NA,38.078129,NA,122.007459,NA,2.4,NA,NA," 2= against flow","1. No twists; snags; or tears","Boat",NA,NA,NA,"LAMOPE",241.188915624294,"Ryer Island",2023-03-20," gps 5; accuracy 2m. not paired. "
"271",7302,12302,"LAMOPE06-RYER-26JAN2023","10:04","",NA,38.078306,NA,122.013944,NA,1.9,NA,NA," 2= against flow","1. No twists; snags; or tears","Boat",NA,NA,NA,"LAMOPE",197.300077206198,"Ryer Island",2023-01-26," not paired. gps 5; accuracy 2m. macoma id by ma 2/9/23"
"272",7346,12366,"LAMOPE06-RYER-28FEB2023","10:45","",NA,38.089013,NA,122.019887,NA,2.2,NA,NA," 2= against flow","1. No twists; snags; or tears","Boat",NA,NA,NA,"LAMOPE",224.14454593097,"Ryer Island",2023-02-28," gps 5; accuracy 2m. not paired."
"273",8378,13819,"LAMOPE06-STAI-20NOV2023","13:02","",NA,38.34979,NA,121.649456,NA,1.6,NA,NA," 2= against flow","1. No twists; snags; or tears","Boat",NA,NA,NA,"LAMOPE",168.922111459686,"Stairsteps-Liberty Cut",2023-11-20," "
"274",8033,13437,"LAMOPE06-STAI-26MAY2023","14:07","",NA,38.333112,NA,121.675876,NA,1.8,NA,NA," 2= against flow","1. No twists; snags; or tears","Boat",NA,NA,NA,"LAMOPE",188.011143848666,"Stairsteps-Liberty Cut",2023-05-26," gps 6 accuracy 3m. a lot of mud and veg. frp23-550: mussel unid dead; for id purposes only! depth from handheld. "
"275",7787,12847,"LAMOPE06-TULE-18APR2023","11:26","",NA,38.1236,NA,121.980044,NA,2.1,NA,NA," 2= against flow","1. No twists; snags; or tears","Boat",NA,NA,NA,"LAMOPE",215.36677824735,"Tule Red",2023-04-18," mysid party! gps from geo-tagged photos - ed 9/7/2023"
"276",8415,13878,"LAMOPE06-TULE-27NOV2023","11:20","",NA,38.132966,NA,121.991466,NA,2.9,NA,NA," 2= against flow","1. No twists; snags; or tears","Boat",NA,NA,NA,"LAMOPE",280.81804009311,"Tule Red",2023-11-27," "
"277",8070,13471,"LAMOPE06-WING-03MAY2023","13:18","",NA,38.214504,NA,122.037213,NA,1,NA,NA," 2= against flow","1. No twists; snags; or tears","Boat",NA,NA,NA,"LAMOPE",107.56568890144,"Wings Landing",2023-05-03," depth from handheld. gps 5; accuracy 2m. not paired"
"278",7317,12317,"LAMOPE06-WINT-02FEB2023","10:30","",NA,38.047749,NA,121.851606,NA,3.1,NA,NA," 2= against flow","1. No twists; snags; or tears","Boat",NA,NA,NA,"LAMOPE",295.476969974838,"Winter Island",2023-02-02," not paired. gps 5; accuracy 2m. "
"279",8445,13930,"LAMOPE06-WINT-11DEC2023","10:03","",NA,38.031054,NA,121.842248,NA,2.8,NA,NA," 2= against flow","1. No twists; snags; or tears","Boat",NA,NA,NA,"LAMOPE",273.23299231529,"Winter Island",2023-12-11," "
"280",7248,12251,"LAMOPE06-WTIB-03JAN2023","12:52","",NA,38.094711,NA,121.584098,NA,7.4,NA,NA," 2= against flow","2. Partial twist; snag; or tear","Boat",NA,NA,NA,"LAMOPE",332.7,"Webb Tract Island and Berms",2023-01-03," gps 6; accuracy 3m. not paired. code 2 - deep. gps calculated and fixed in 2023 sample inventory - ed 21jul2023"
"281",7323,12323,"LAMOPE06-WTIB-08FEB2023","11:37","",NA,38.096381,NA,121.588315,NA,2.1,NA,NA," 2= against flow","1. No twists; snags; or tears","Boat",NA,NA,NA,"LAMOPE",215.36677824735,"Webb Tract Island and Berms",2023-02-08," not paired. gps 5; accuracy 2m."
"282",8467,13967,"LAMOPE06-WTIB-19DEC2023","12:20","",NA,38.094672,NA,121.587013,NA,7.9,NA,NA," 2= against flow","2. Partial twist; snag; or tear","Boat",NA,NA,NA,"LAMOPE",332.7,"Webb Tract Island and Berms",2023-12-19," code 2 = depth"
"283",8071,13472,"LAMOPE07-ARNO-03MAY2023","14:40","",NA,38.178006,NA,121.906103,NA,1,NA,NA," 2= against flow","1. No twists; snags; or tears","Boat",NA,NA,NA,"LAMOPE",107.56568890144,"Arnold Slough",2023-05-03," depth from handheld. gps 5. accuracy 2m. not paired."
"284",7439,12459,"LAMOPE07-ARNO-16MAR2023","11:22","",NA,38.178302,NA,121.901038,NA,1.2,NA,NA," 2= against flow","1. No twists; snags; or tears","Boat",NA,NA,NA,"LAMOPE",128.699383986074,"Arnold Slough",2023-03-16," gps 5; accuracy 4m. not paired. "
"285",8427,13908,"LAMOPE07-ARNO-28NOV2023","12:59","",NA,38.176156,NA,121.905238,NA,1.5,NA,NA," 2= against flow","1. No twists; snags; or tears","Boat",NA,NA,NA,"LAMOPE",159.12201242824,"Arnold Slough",2023-11-28," "
"286",8495,13995,"LAMOPE07-BLAC-26DEC2023","11:50","",NA,38.17933,NA,121.910118,NA,1.7,NA,NA," 2= against flow","1. No twists; snags; or tears","Boat",NA,NA,NA,"LAMOPE",178.551821933162,"Blacklock",2023-12-26," "
"287",7324,12324,"LAMOPE07-BROW-08FEB2023","12:40","",NA,38.032552,NA,121.857327,NA,2.8,NA,NA," 2= against flow","1. No twists; snags; or tears","Boat",NA,NA,NA,"LAMOPE",273.23299231529,"Browns Island",2023-02-08," not paired. gps 5; accuracy 2m. unid shrimp - broken rostrum"
"288",8446,13931,"LAMOPE07-BROW-11DEC2023","10:53","",NA,38.032627,NA,121.857367,NA,1.9,NA,NA," 2= against flow","1. No twists; snags; or tears","Boat",NA,NA,NA,"LAMOPE",197.300077206198,"Browns Island",2023-12-11," "
"289",7256,12260,"LAMOPE07-CHIP-12JAN2023","11:40","",NA,38.059639,NA,121.918052,NA,1.5,NA,NA," 2= against flow","1. No twists; snags; or tears","Boat",NA,NA,NA,"LAMOPE",159.12201242824,"Chipps Island",2023-01-12," gps 5; accuracy 2m. not paired."
"290",7375,12395,"LAMOPE07-CHIP-15MAR2023","11:43","",NA,38.0532,NA,121.932045,NA,1.9,NA,NA," 2= against flow","1. No twists; snags; or tears","Boat",NA,NA,NA,"LAMOPE",197.300077206198,"Chipps Island",2023-03-15," gps#5; accuracy: 3m; "
"291",8017,13417,"LAMOPE07-CHIP-18MAY2023","11:21","",NA,38.061417,NA,121.909733,NA,1.9,NA,NA," 2= against flow","1. No twists; snags; or tears","Boat",NA,NA,NA,"LAMOPE",197.300077206198,"Chipps Island",2023-05-18," gps 6 accuracy 3m. depth from handheld."
"292",8474,13974,"LAMOPE07-FLYW-20DEC2023","12:41","",NA,38.362241,NA,121.642829,NA,1.4,NA,NA," 2= against flow","1. No twists; snags; or tears","Crew Members and Boat",NA,NA,NA,"LAMOPE",149.151524838822,"Flyway Farms",2023-12-20," collected wakasa"
"293",8379,13820,"LAMOPE07-FLYW-20NOV2023","14:06","",NA,38.360903,NA,121.646346,NA,1.3,NA,NA," 2= against flow","1. No twists; snags; or tears","Crew Members and Boat",NA,NA,NA,"LAMOPE",139.010648691434,"Flyway Farms",2023-11-20," "
"294",7287,12287,"LAMOPE07-FLYW-25JAN2023","12:57","",NA,38.361017,NA,121.643026,NA,2.4,NA,NA," 2= against flow","1. No twists; snags; or tears","Boat",NA,NA,NA,"LAMOPE",241.188915624294,"Flyway Farms",2023-01-25," not paired. gps 5; accuracy 3m. "
"295",7303,12303,"LAMOPE07-GRIZ-26JAN2023","10:41","",NA,38.11611,NA,122.003821,NA,2,NA,NA," 2= against flow","1. No twists; snags; or tears","Boat",NA,NA,NA,"LAMOPE",206.41862200576,"Grizzly Bay",2023-01-26," not paired. gps 5; accuracy 6m. potamocorbula most likely from lampara #6. thrsha with some bleeding."
"296",7487,12527,"LAMOPE07-HONK-05APR2023","12:16","",NA,38.061774,NA,121.92973,NA,2.6,NA,NA," 2= against flow","1. No twists; snags; or tears","Boat",NA,NA,NA,"LAMOPE",257.551731085734,"Honker-Spoonbill",2023-04-05," gps 5; accuracy 2m. not paired. handheld depth finder"
"297",8355,13797,"LAMOPE07-HONK-15NOV2023","12:37","",NA,38.058146,NA,121.902198,NA,5.3,NA,NA," 2= against flow","2. Partial twist; snag; or tear","Boat",NA,NA,NA,"LAMOPE",332.7,"Honker-Spoonbill",2023-11-15," code 2 =depth"
"298",7362,12382,"LAMOPE07-HORS-02MAR2023","13:57","",NA,38.082293,NA,121.716995,NA,8.9,NA,NA," 2= against flow","2. Partial twist; snag; or tear","Boat",NA,NA,NA,"LAMOPE",332.7,"Horseshoe Bend",2023-03-02," gps 5; accuracy 2m. not paired. code 2: depth. last lampara for hors; large hole in monofilament cannot use net due to massive hole"
"299",7966,13372,"LAMOPE07-LIBE-26APR2023","13:48","",NA,38.263942,NA,121.675713,NA,1.6,NA,NA," 2= against flow","1. No twists; snags; or tears","Boat",NA,NA,NA,"LAMOPE",168.922111459686,"Liberty Island",2023-04-26," gps 5; accuracy 2m. not paired. depth from handheld"
"300",7468,12490,"LAMOPE07-NURS-04APR2023","15:35","",NA,38.182203,NA,121.908897,NA,1.2,NA,NA," 2= against flow","1. No twists; snags; or tears","Boat",NA,NA,NA,"LAMOPE",128.699383986074,"Nurse-Denverton",2023-04-04," gps 5; accuracy 3m. not paired."
"301",7271,12275,"LAMOPE07-NURS-19JAN2023","10:20","",NA,38.17696,NA,121.920852,NA,2.6,NA,NA," 2= against flow","1. No twists; snags; or tears","Boat",NA,NA,NA,"LAMOPE",257.551731085734,"Nurse-Denverton",2023-01-19," gps 5; accuracy 2. not paired. pulled net through tule (californicus)"
"302",8507,14007,"LAMOPE07-PEYT-29DEC2023","12:23","",NA,38.224408,NA,122.04284,NA,3.6,NA,NA," 2= against flow","1. No twists; snags; or tears","Boat",NA,NA,NA,"LAMOPE",332.7,"Peytonia-Suisun",2023-12-29," bayshr+1 from last lampara (probably) in tub"
"303",8008,13408,"LAMOPE07-RYER-16MAY2023","12:42","",NA,38.089497,NA,122.025071,NA,2.5,NA,NA," 2= against flow","1. No twists; snags; or tears","Boat",NA,NA,NA,"LAMOPE",249.455517634,"Ryer Island",2023-05-16," gps 6 accuracy 3m. depth from handheld"
"304",7788,12849,"LAMOPE07-RYER-18APR2023","12:49","",NA,38.086974,NA,122.030483,NA,1.6,NA,NA," 2= against flow","2. Partial twist; snag; or tear","Boat",NA,NA,NA,"LAMOPE",168.922111459686,"Ryer Island",2023-04-18," code 2: narrow. paired y. gps from geo-tagged photos - ed 9/8/2023"
"305",8486,13986,"LAMOPE07-RYER-22DEC2023","12:45","",NA,38.084348,NA,122.009144,NA,1.9,NA,NA," 2= against flow","1. No twists; snags; or tears","Boat",NA,NA,NA,"LAMOPE",197.300077206198,"Ryer Island",2023-12-22," "
"306",7347,12367,"LAMOPE07-RYER-28FEB2023","11:06","",NA,38.086035,NA,122.019642,NA,2.7,NA,NA," 2= against flow","1. No twists; snags; or tears","Boat",NA,NA,NA,"LAMOPE",265.477555979498,"Ryer Island",2023-02-28," gps 5; accuracy 2m. not paired."
"307",7427,12447,"LAMOPE07-TULE-20MAR2023","12:35","",NA,38.122114,NA,121.983243,NA,3.2,NA,NA," 2= against flow","1. No twists; snags; or tears","Boat",NA,NA,NA,"LAMOPE",302.550852078746,"Tule Red",2023-03-20," gps 5; accuracy 2m. not paired. "
"308",8416,13879,"LAMOPE07-TULE-27NOV2023","11:44","",NA,38.133816,NA,121.993162,NA,2.9,NA,NA," 2= against flow","1. No twists; snags; or tears","Boat",NA,NA,NA,"LAMOPE",280.81804009311,"Tule Red",2023-11-27," "
"309",7249,12252,"LAMOPE07-WTIB-03JAN2023","13:08","",NA,38.096616,NA,121.589746,NA,2.4,NA,NA," 2= against flow","1. No twists; snags; or tears","Boat",NA,NA,NA,"LAMOPE",241.188915624294,"Webb Tract Island and Berms",2023-01-03," gps 6; accuracy 3m. not paired. dominant vegetation in net: egeden. pulled net through tules. gps calculated and fixed in 2023 sample inventory - ed 21jul2023"
"310",8468,13968,"LAMOPE07-WTIB-19DEC2023","12:36","",NA,38.094404,NA,121.590426,NA,4.4,NA,NA," 2= against flow","2. Partial twist; snag; or tear","Boat",NA,NA,NA,"LAMOPE",332.7,"Webb Tract Island and Berms",2023-12-19," code 2 =depth"
"311",8389,13851,"LAMOPE07-WTIB-21NOV2023","14:58","",NA,38.094738,NA,121.585619,NA,7.3,NA,NA," 2= against flow","2. Partial twist; snag; or tear","Boat",NA,NA,NA,"LAMOPE",332.7,"Webb Tract Island and Berms",2023-11-21," code 2: depth and narrow"
"312",8072,13473,"LAMOPE08-ARNO-03MAY2023","14:55","",NA,38.176362,NA,121.901666,NA,1.1,NA,NA," 2= against flow","1. No twists; snags; or tears","Boat",NA,NA,NA,"LAMOPE",118.217730722742,"Arnold Slough",2023-05-03," depth from handheld. gps 5; accuracy 2m. not paired"
"313",7469,12491,"LAMOPE08-ARNO-04APR2023","15:53","",NA,38.176987,NA,121.904032,NA,1.2,NA,NA," 2= against flow","1. No twists; snags; or tears","Boat",NA,NA,NA,"LAMOPE",128.699383986074,"Arnold Slough",2023-04-04," gps 5; accuracy 3m. not paired. "
"314",7440,12460,"LAMOPE08-ARNO-16MAR2023","11:38","",NA,38.177148,NA,121.902623,NA,1.6,NA,NA," 2= against flow","1. No twists; snags; or tears","Boat",NA,NA,NA,"LAMOPE",168.922111459686,"Arnold Slough",2023-03-16," gps 5; accuracy 2m. not paired. "
"315",8428,13909,"LAMOPE08-ARNO-28NOV2023","13:18","",NA,38.179601,NA,121.90036,NA,1.4,NA,NA," 2= against flow","1. No twists; snags; or tears","Boat",NA,NA,NA,"LAMOPE",149.151524838822,"Arnold Slough",2023-11-28," missil @ 75;62;53 with weird internal hemorrhaging; others plus counted with it as well; emma has pics; nematodes!- identified by dnd"
"316",8496,13996,"LAMOPE08-BLAC-26DEC2023","12:06","",NA,38.177022,NA,121.911401,NA,1.4,NA,NA," 2= against flow","1. No twists; snags; or tears","Boat",NA,NA,NA,"LAMOPE",149.151524838822,"Blacklock",2023-12-26," "
"317",7325,12325,"LAMOPE08-BROW-08FEB2023","13:44","",NA,38.039324,NA,121.864605,NA,3.6,NA,NA," 2= against flow","2. Partial twist; snag; or tear","Boat",NA,NA,NA,"LAMOPE",332.7,"Browns Island",2023-02-08," not paired. gps: phone gps. code 2 - depth. no depth recorded; but volume is at max - ed 10aug2023"
"318",8447,13932,"LAMOPE08-BROW-11DEC2023","11:28","",NA,38.042073,NA,121.86845,NA,4.4,NA,NA," 2= against flow","2. Partial twist; snag; or tear","Boat",NA,NA,NA,"LAMOPE",332.7,"Browns Island",2023-12-11," clip rope on starboard side snapped off; able to pull in net quickly"
"319",7488,12528,"LAMOPE08-CHIP-05APR2023","12:31","",NA,38.056627,NA,121.923961,NA,1.4,NA,NA," 2= against flow","1. No twists; snags; or tears","Boat",NA,NA,NA,"LAMOPE",149.151524838822,"Chipps Island",2023-04-05," gps 5; accuracy 2m. not paired. handheld depth finder"
"320",7257,12261,"LAMOPE08-CHIP-12JAN2023","12:10","",NA,38.057301,NA,121.920764,NA,2.5,NA,NA," 2= against flow","1. No twists; snags; or tears","Boat",NA,NA,NA,"LAMOPE",249.455517634,"Chipps Island",2023-01-12," gps 5; accuracy 2m. not paired."
"321",8361,13801,"LAMOPE08-CHIP-15NOV2023","13:19","",NA,38.065505,NA,121.912174,NA,2.9,NA,NA," 2= against flow","1. No twists; snags; or tears","Boat",NA,NA,NA,"LAMOPE",280.81804009311,"Chipps Island",2023-11-15," "
"322",8018,13418,"LAMOPE08-CHIP-18MAY2023","11:41","",NA,38.066658,NA,121.912626,NA,1.6,NA,NA," 2= against flow","1. No twists; snags; or tears","Boat",NA,NA,NA,"LAMOPE",168.922111459686,"Chipps Island",2023-05-18," gps 6 accuracy 3m. depth from handheld."
"323",7304,12304,"LAMOPE08-GRIZ-26JAN2023","11:03","",NA,38.130554,NA,122.008894,NA,1.6,NA,NA," 2= against flow","1. No twists; snags; or tears","Boat",NA,NA,NA,"LAMOPE",168.922111459686,"Grizzly Bay",2023-01-26," not paired. gps 5; accuracy 6m. ripped hole in cod end of lam01; switch to lam03. strbas with very few stripes; more checkered pattern."
"324",7381,12401,"LAMOPE08-HONK-15MAR2023","12:10","",NA,38.075546,NA,121.930123,NA,2.3,NA,NA," 2= against flow","1. No twists; snags; or tears","Boat",NA,NA,NA,"LAMOPE",232.751925056618,"Honker-Spoonbill",2023-03-15," gps 5; accuracy 3m. not paired."
"325",7967,13373,"LAMOPE08-LIBE-26APR2023","14:06","",NA,38.2623,NA,121.685453,NA,1.6,NA,NA," 2= against flow","1. No twists; snags; or tears","Boat",NA,NA,NA,"LAMOPE",168.922111459686,"Liberty Island",2023-04-26," gps 5; accuracy 2m. not paired. chl is 1.09. depth from handheld"
"326",7272,12276,"LAMOPE08-NURS-19JAN2023","10:42","",NA,38.176481,NA,121.910579,NA,4.2,NA,NA," 2= against flow","2. Partial twist; snag; or tear","Boat",NA,NA,NA,"LAMOPE",332.7,"Nurse-Denverton",2023-01-19," gps 5; accuracy 5. not paired. code 2 - depth"
"327",8508,14008,"LAMOPE08-PEYT-29DEC2023","12:39","",NA,38.220816,NA,122.044198,NA,3.7,NA,NA," 2= against flow","2. Partial twist; snag; or tear","Boat",NA,NA,NA,"LAMOPE",332.7,"Peytonia-Suisun",2023-12-29," code 2: depth"
"328",8009,13409,"LAMOPE08-RYER-16MAY2023","13:07","",NA,38.080661,NA,122.015075,NA,1.2,NA,NA," 2= against flow","1. No twists; snags; or tears","Boat",NA,NA,NA,"LAMOPE",128.699383986074,"Ryer Island",2023-05-16," gps 6 accuracy 3m. depth from handheld"
"329",7789,12850,"LAMOPE08-RYER-18APR2023","13:16","",NA,38.085169,NA,122.014503,NA,1.7,NA,NA," 2= against flow","1. No twists; snags; or tears","Boat",NA,NA,NA,"LAMOPE",178.551821933162,"Ryer Island",2023-04-18," paired y. gps calculated in 2023 sample inventory - ed 9/8/2023"
"330",8487,13987,"LAMOPE08-RYER-22DEC2023","13:14","",NA,38.089228,NA,122.020012,NA,1.4,NA,NA," 2= against flow","1. No twists; snags; or tears","Boat",NA,NA,NA,"LAMOPE",149.151524838822,"Ryer Island",2023-12-22," "
"331",8417,13880,"LAMOPE08-RYER-27NOV2023","12:16","",NA,38.077324,NA,122.013901,NA,3.8,NA,NA," 2= against flow","2. Partial twist; snag; or tear","Boat",NA,NA,NA,"LAMOPE",332.7,"Ryer Island",2023-11-27," code 2: depth"
"332",7288,12288,"LAMOPE08-STAI-25JAN2023","13:15","",NA,38.350014,NA,121.656044,NA,3.6,NA,NA," 2= against flow","1. No twists; snags; or tears","Boat",NA,NA,NA,"LAMOPE",332.7,"Stairsteps-Liberty Cut",2023-01-25," not paired. gps 5; accuracy 2m."
"333",7431,12451,"LAMOPE08-TULE-20MAR2023","14:20","",NA,38.128521,NA,121.98825,NA,3,NA,NA," 2= against flow","1. No twists; snags; or tears","Boat",NA,NA,NA,"LAMOPE",288.23269931296,"Tule Red",2023-03-20," gps 5; accuracy 2m. not paired. "
"334",7348,12368,"LAMOPE08-WING-28FEB2023","12:15","",NA,38.214344,NA,122.039479,NA,0.9,NA,NA," 2= against flow","1. No twists; snags; or tears","Boat",NA,NA,NA,"LAMOPE",96.7432585221664,"Wings Landing",2023-02-28," gps #5 accuracy 2m"
"335",8390,13852,"LAMOPE08-WTIB-21NOV2023","15:07","",NA,38.094521,NA,121.587743,NA,10,NA,NA," 2= against flow","2. Partial twist; snag; or tear","Boat",NA,NA,NA,"LAMOPE",332.7,"Webb Tract Island and Berms",2023-11-21," code 2:depth"
"336",8073,13474,"LAMOPE09-ARNO-03MAY2023","15:13","",NA,38.179867,NA,121.905335,NA,1.2,NA,NA," 2= against flow","1. No twists; snags; or tears","Boat",NA,NA,NA,"LAMOPE",128.699383986074,"Arnold Slough",2023-05-03," depth from handheld. gps 5; accuracy 2m. not paired"
"337",7470,12492,"LAMOPE09-ARNO-04APR2023","16:11","",NA,38.175975,NA,121.903128,NA,1.4,NA,NA," 2= against flow","1. No twists; snags; or tears","Boat",NA,NA,NA,"LAMOPE",149.151524838822,"Arnold Slough",2023-04-04," gps 5; accuracy 3m. not paired"
"338",7441,12461,"LAMOPE09-ARNO-16MAR2023","11:52","",NA,38.174938,NA,121.901754,NA,0.9,NA,NA," 2= against flow","1. No twists; snags; or tears","Boat",NA,NA,NA,"LAMOPE",96.7432585221664,"Arnold Slough",2023-03-16," gps 5; accuracy 2m. not paired"
"339",8429,13911,"LAMOPE09-ARNO-28NOV2023","13:53","",NA,38.179806,NA,121.905188,NA,1.7,NA,NA," 2= against flow","1. No twists; snags; or tears","Boat",NA,NA,NA,"LAMOPE",178.551821933162,"Arnold Slough",2023-11-28," "
"340",8497,13997,"LAMOPE09-BLAC-26DEC2023","12:28","",NA,38.179544,NA,121.912625,NA,2.6,NA,NA," 2= against flow","1. No twists; snags; or tears","Boat",NA,NA,NA,"LAMOPE",257.551731085734,"Blacklock",2023-12-26," "
"341",7326,12326,"LAMOPE09-BROW-08FEB2023","14:10","",NA,38.03919,NA,121.857677,NA,3.3,NA,NA," 2= against flow","2. Partial twist; snag; or tear","Boat",NA,NA,NA,"LAMOPE",309.454345624682,"Browns Island",2023-02-08," not paired. gps 5; accuracy 2m. code 2 - weird twist/net wrapped around line but not a total twist; narrow possibly code 3 but not redoing due to time constraints."
"342",8448,13933,"LAMOPE09-BROW-11DEC2023","12:13","",NA,38.039039,NA,121.865713,NA,4.8,NA,NA," 2= against flow","2. Partial twist; snag; or tear","Boat",NA,NA,NA,"LAMOPE",332.7,"Browns Island",2023-12-11," code 2 = depth. net got unclipped during beginning of tear drop; retrieved and pulled in"
"343",7489,12529,"LAMOPE09-CHIP-05APR2023","12:49","",NA,38.058578,NA,121.918834,NA,2.2,NA,NA," 2= against flow","1. No twists; snags; or tears","Boat",NA,NA,NA,"LAMOPE",224.14454593097,"Chipps Island",2023-04-05," gps 5; accuracy 2m. not paired."
"344",8362,13802,"LAMOPE09-CHIP-15NOV2023","13:32","",NA,38.064188,NA,121.911365,NA,2.9,NA,NA," 2= against flow","1. No twists; snags; or tears","Boat",NA,NA,NA,"LAMOPE",280.81804009311,"Chipps Island",2023-11-15," "
"345",8019,13419,"LAMOPE09-CHIP-18MAY2023","12:01","",NA,38.070784,NA,121.913965,NA,1.6,NA,NA," 2= against flow","1. No twists; snags; or tears","Boat",NA,NA,NA,"LAMOPE",168.922111459686,"Chipps Island",2023-05-18," gps 6 accuracy 7m. depth from handheld."
"346",7305,12305,"LAMOPE09-GRIZ-26JAN2023","11:21","",NA,38.135858,NA,122.005474,NA,1.3,NA,NA," 2= against flow","1. No twists; snags; or tears","Boat",NA,NA,NA,"LAMOPE",139.010648691434,"Grizzly Bay",2023-01-26," not paired. gps 5; accuracy 3m. thrsti - ethanol; collected; see back. chisal - on ice; collected; see back."
"347",7258,12262,"LAMOPE09-HONK-12JAN2023","12:32","",NA,38.079453,NA,121.91,NA,0.9,NA,NA," 2= against flow","1. No twists; snags; or tears","Boat",NA,NA,NA,"LAMOPE",96.7432585221664,"Honker-Spoonbill",2023-01-12," gps 5; accuracy 2m. not paired."
"348",7382,12402,"LAMOPE09-HONK-15MAR2023","12:31","",NA,38.074482,NA,121.917406,NA,2.4,NA,NA," 2= against flow","1. No twists; snags; or tears","Boat",NA,NA,NA,"LAMOPE",241.188915624294,"Honker-Spoonbill",2023-03-15," gps 5; accuracy 3m. not paired. "
"349",7273,12277,"LAMOPE09-NURS-19JAN2023","11:04","",NA,38.182996,NA,121.915176,NA,2.1,NA,NA," 2= against flow","1. No twists; snags; or tears","Boat",NA,NA,NA,"LAMOPE",215.36677824735,"Nurse-Denverton",2023-01-19," gps 5; accuracy 2. not paired."
"350",8010,13410,"LAMOPE09-RYER-16MAY2023","13:26","",NA,38.081651,NA,122.017746,NA,1,NA,NA," 2= against flow","1. No twists; snags; or tears","Boat",NA,NA,NA,"LAMOPE",107.56568890144,"Ryer Island",2023-05-16," gps 6 accuracy 3m. depth from handheld"
"351",8488,13988,"LAMOPE09-RYER-22DEC2023","13:40","",NA,38.083364,NA,122.017862,NA,1.6,NA,NA," 2= against flow","1. No twists; snags; or tears","Boat",NA,NA,NA,"LAMOPE",168.922111459686,"Ryer Island",2023-12-22," "
"352",8418,13881,"LAMOPE09-RYER-27NOV2023","12:47","",NA,38.081544,NA,122.01779,NA,2.5,NA,NA," 2= against flow","1. No twists; snags; or tears","Boat",NA,NA,NA,"LAMOPE",249.455517634,"Ryer Island",2023-11-27," "
"353",7289,12289,"LAMOPE09-STAI-25JAN2023","13:52","",NA,38.327418,NA,121.667073,NA,5.4,NA,NA," 2= against flow","2. Partial twist; snag; or tear","Boat",NA,NA,NA,"LAMOPE",332.7,"Stairsteps-Liberty Cut",2023-01-25," not paired. gps 5; accuracy 2m. 2 seine code b/c of depth. missil had some internal bleeding near anus."
"354",7432,12452,"LAMOPE09-TULE-20MAR2023","14:42","",NA,38.133734,NA,121.992623,NA,1.4,NA,NA," 2= against flow","1. No twists; snags; or tears","Boat",NA,NA,NA,"LAMOPE",149.151524838822,"Tule Red",2023-03-20," gps 5; accuracy 2m. not paired."
"355",7349,12369,"LAMOPE09-WING-28FEB2023","12:57","",NA,38.217038,NA,122.034527,NA,1,NA,NA," 2= against flow","1. No twists; snags; or tears","Boat",NA,NA,NA,"LAMOPE",107.56568890144,"Wings Landing",2023-02-28," gps 5; accuracy 2m. not paired. "
"356",8509,14009,"LAMOPE09-WING-29DEC2023","12:59","",NA,38.219699,NA,122.044344,NA,1.3,NA,NA," 2= against flow","1. No twists; snags; or tears","Boat",NA,NA,NA,"LAMOPE",139.010648691434,"Wings Landing",2023-12-29," "
"357",8391,13853,"LAMOPE09-WTIB-21NOV2023","15:32","",NA,38.096168,NA,121.589698,NA,1.3,NA,NA," 2= against flow","1. No twists; snags; or tears","Boat",NA,NA,NA,"LAMOPE",139.010648691434,"Webb Tract Island and Berms",2023-11-21," goby unid looks regurgitated "
"358",7471,12493,"LAMOPE10-ARNO-04APR2023","16:25","",NA,38.180796,NA,121.904011,NA,1.3,NA,NA," 2= against flow","1. No twists; snags; or tears","Boat",NA,NA,NA,"LAMOPE",139.010648691434,"Arnold Slough",2023-04-04," gps 5; accuracy 3m. not paired"
"359",7274,12278,"LAMOPE10-ARNO-19JAN2023","11:25","",NA,38.175538,NA,121.907831,NA,1.9,NA,NA," 2= against flow","1. No twists; snags; or tears","Boat",NA,NA,NA,"LAMOPE",197.300077206198,"Arnold Slough",2023-01-19," gps 5; accuracy 2. not paired. thrsti collected in etoh frp23-505"
"360",8498,13998,"LAMOPE10-ARNO-26DEC2023","12:45","",NA,38.178156,NA,121.907823,NA,2.1,NA,NA," 2= against flow","1. No twists; snags; or tears","Boat",NA,NA,NA,"LAMOPE",215.36677824735,"Arnold Slough",2023-12-26," "
"361",8430,13912,"LAMOPE10-BLAC-28NOV2023","14:28","",NA,38.179617,NA,121.910472,NA,1.9,NA,NA," 3= unknown","1. No twists; snags; or tears","Boat",NA,NA,NA,"LAMOPE",197.300077206198,"Blacklock",2023-11-28," *  = internal hemorrhage; nematodes"
"362",8363,13803,"LAMOPE10-BROW-15NOV2023","14:01","",NA,38.03851,NA,121.868725,NA,4.7,NA,NA," 2= against flow","2. Partial twist; snag; or tear","Boat",NA,NA,NA,"LAMOPE",332.7,"Browns Island",2023-11-15," code 2: depth"
"363",8020,13420,"LAMOPE10-BROW-18MAY2023","12:37","",NA,38.038521,NA,121.863101,NA,3.6,NA,NA," 2= against flow","1. No twists; snags; or tears","Boat",NA,NA,NA,"LAMOPE",332.7,"Browns Island",2023-05-18," gps 6 accuracy 3m. depth from handheld."
"364",7490,12530,"LAMOPE10-CHIP-05APR2023","13:12","",NA,38.060088,NA,121.917878,NA,1.2,NA,NA," 2= against flow","1. No twists; snags; or tears","Boat",NA,NA,NA,"LAMOPE",128.699383986074,"Chipps Island",2023-04-05," gps 5; accuracy 2m. not paired. handheld depth finder. scale only in grams min = 1g"
"365",7327,12327,"LAMOPE10-CHIP-08FEB2023","14:44","",NA,38.055937,NA,121.932234,NA,1.7,NA,NA," 2= against flow","1. No twists; snags; or tears","Boat",NA,NA,NA,"LAMOPE",178.551821933162,"Chipps Island",2023-02-08," not paired. gps 5; accuracy 2m. "
"366",7383,12403,"LAMOPE10-CHIP-15MAR2023","12:55","",NA,38.061236,NA,121.90928,NA,2.2,NA,NA," 2= against flow","1. No twists; snags; or tears","Boat",NA,NA,NA,"LAMOPE",224.14454593097,"Chipps Island",2023-03-15," gps 5; accuracy 3m. not paired."
"367",8449,13934,"LAMOPE10-HONK-11DEC2023","12:48","",NA,38.074182,NA,121.919638,NA,3.1,NA,NA," 2= against flow","1. No twists; snags; or tears","Boat",NA,NA,NA,"LAMOPE",295.476969974838,"Honker-Spoonbill",2023-12-11," "
"368",7259,12263,"LAMOPE10-HONK-12JAN2023","12:58","",NA,38.071505,NA,121.910893,NA,2.2,NA,NA," 2= against flow","1. No twists; snags; or tears","Boat",NA,NA,NA,"LAMOPE",224.14454593097,"Honker-Spoonbill",2023-01-12," gps 5; accuracy 2m. not paired. "
"369",8074,13475,"LAMOPE10-NURS-03MAY2023","15:40","",NA,38.196565,NA,121.913861,NA,5.3,NA,NA," 2= against flow","2. Partial twist; snag; or tear","Boat",NA,NA,NA,"LAMOPE",332.7,"Nurse-Denverton",2023-05-03," depth from handheld. code 2 -depth. gps 5; accuracy 2m. not paired"
"370",7442,12462,"LAMOPE10-NURS-16MAR2023","12:54","",NA,38.183715,NA,121.91357,NA,2.1,NA,NA," 2= against flow","1. No twists; snags; or tears","Boat",NA,NA,NA,"LAMOPE",215.36677824735,"Nurse-Denverton",2023-03-16," gps 5; accuracy 2m. not paired. "
"371",7790,13641,"LAMOPE10-RYER-18APR2023","13:52","",NA,38.07996,NA,122.008565,NA,2.2,NA,NA," 2= against flow","1. No twists; snags; or tears","Boat",NA,NA,NA,"LAMOPE",224.14454593097,"Ryer Island",2023-04-18," used same water quality as previous sample. paired? y. gps calculated in 2023 sample inventory - ed 9/8/2023"
"372",8419,13882,"LAMOPE10-RYER-27NOV2023","13:16","",NA,38.086738,NA,122.029744,NA,2.2,NA,NA," 2= against flow","1. No twists; snags; or tears","Boat",NA,NA,NA,"LAMOPE",224.14454593097,"Ryer Island",2023-11-27," "
"373",7290,12290,"LAMOPE10-STAI-25JAN2023","14:15","",NA,38.303006,NA,121.667441,NA,3.1,NA,NA," 2= against flow","1. No twists; snags; or tears","Boat",NA,NA,NA,"LAMOPE",295.476969974838,"Stairsteps-Liberty Cut",2023-01-25," not paired. gps 5; accuracy 2m."
"374",7350,12370,"LAMOPE10-WING-28FEB2023","13:22","",NA,38.220774,NA,122.043359,NA,1.6,NA,NA," 2= against flow","1. No twists; snags; or tears","Boat",NA,NA,NA,"LAMOPE",168.922111459686,"Wings Landing",2023-02-28," gps 5; accuracy 2m. not paired."
"375",8510,14010,"LAMOPE10-WING-29DEC2023","13:39","",NA,38.222215,NA,122.042399,NA,1.2,NA,NA," 2= against flow","1. No twists; snags; or tears","Boat",NA,NA,NA,"LAMOPE",128.699383986074,"Wings Landing",2023-12-29," "
"376",7275,12279,"LAMOPE11-ARNO-19JAN2023","11:55","",NA,38.180359,NA,121.900047,NA,1.2,NA,NA," 2= against flow","1. No twists; snags; or tears","Boat",NA,NA,NA,"LAMOPE",128.699383986074,"Arnold Slough",2023-01-19," gps 5; accuracy 2m. not paired."
"377",8499,13999,"LAMOPE11-ARNO-26DEC2023","13:04","",NA,38.175309,NA,121.904705,NA,1.3,NA,NA," 2= against flow","1. No twists; snags; or tears","Boat",NA,NA,NA,"LAMOPE",139.010648691434,"Arnold Slough",2023-12-26," "
"378",8432,13914,"LAMOPE11-BLAC-28NOV2023","14:52","",NA,38.178089,NA,121.909557,NA,1.9,NA,NA," 2= against flow","1. No twists; snags; or tears","Boat",NA,NA,NA,"LAMOPE",197.300077206198,"Blacklock",2023-11-28," * = internal hemorrhage; nematodes!"
"379",7491,12531,"LAMOPE11-BROW-05APR2023","14:14","",NA,38.039013,NA,121.873708,NA,1.7,NA,NA," 2= against flow","1. No twists; snags; or tears","Boat",NA,NA,NA,"LAMOPE",178.551821933162,"Browns Island",2023-04-05," gps 5; accuracy 2m. not paired. "
"380",8364,13804,"LAMOPE11-BROW-15NOV2023","14:15","",NA,38.033184,NA,121.856806,NA,2.8,NA,NA," 2= against flow","1. No twists; snags; or tears","Boat",NA,NA,NA,"LAMOPE",273.23299231529,"Browns Island",2023-11-15," "
"381",8021,13421,"LAMOPE11-BROW-18MAY2023","12:55","",NA,38.041183,NA,121.868375,NA,1.6,NA,NA," 2= against flow","1. No twists; snags; or tears","Boat",NA,NA,NA,"LAMOPE",168.922111459686,"Browns Island",2023-05-18," gps 6 accuracy 3. depth from handheld"
"382",7260,12264,"LAMOPE11-CHIP-12JAN2023","13:28","",NA,38.06507,NA,121.911757,NA,2.5,NA,NA," 2= against flow","1. No twists; snags; or tears","Boat",NA,NA,NA,"LAMOPE",249.455517634,"Chipps Island",2023-01-12," gps 5; accuracy 2. not paired. frp23-502 chisal-f 37 0 whole ice"
"383",7384,12404,"LAMOPE11-CHIP-15MAR2023","13:14","",NA,38.06171,NA,121.909967,NA,2.5,NA,NA," 2= against flow","1. No twists; snags; or tears","Boat",NA,NA,NA,"LAMOPE",249.455517634,"Chipps Island",2023-03-15," gps 5; accuracy 3m. not paired. "
"384",7328,12328,"LAMOPE11-HONK-08FEB2023","14:59","",NA,38.073625,NA,121.932065,NA,2.6,NA,NA," 2= against flow","1. No twists; snags; or tears","Boat",NA,NA,NA,"LAMOPE",257.551731085734,"Honker-Spoonbill",2023-02-08," not paired. gps 5; accuracy 2m. "
"385",8450,13935,"LAMOPE11-HONK-11DEC2023","13:01","",NA,38.076512,NA,121.926833,NA,3,NA,NA," 2= against flow","1. No twists; snags; or tears","Boat",NA,NA,NA,"LAMOPE",288.23269931296,"Honker-Spoonbill",2023-12-11," "
"386",7291,12291,"LAMOPE11-LIBE-25JAN2023","14:48","",NA,38.25602,NA,121.686229,NA,2.1,NA,NA," 2= against flow","1. No twists; snags; or tears","Boat",NA,NA,NA,"LAMOPE",215.36677824735,"Liberty Island",2023-01-25," not paired. gps 5; accuracy 2m. many tiny snails in sav. unid shrimp due to broken rostrum"
"387",8075,13476,"LAMOPE11-NURS-03MAY2023","15:53","",NA,38.192704,NA,121.912174,NA,2.2,NA,NA," 2= against flow","1. No twists; snags; or tears","Boat",NA,NA,NA,"LAMOPE",224.14454593097,"Nurse-Denverton",2023-05-03," depth from handheld. gps 5; accuracy 2m. not paired"
"388",7443,12463,"LAMOPE11-NURS-16MAR2023","13:19","",NA,38.182801,NA,121.927091,NA,3.4,NA,NA," 2= against flow","2. Partial twist; snag; or tear","Boat",NA,NA,NA,"LAMOPE",316.187450612646,"Nurse-Denverton",2023-03-16," gps 5; accuracy 2m. not paired. code 2 = net was narrow; caught on tule root wad"
"389",7351,12371,"LAMOPE11-PEYT-28FEB2023","13:33","",NA,38.220918,NA,122.043939,NA,3.6,NA,NA," 2= against flow","1. No twists; snags; or tears","Boat",NA,NA,NA,"LAMOPE",332.7,"Peytonia-Suisun",2023-02-28," gps 5; accuracy 2m. not paired"
"390",8511,14011,"LAMOPE11-WING-29DEC2023","13:53","",NA,38.224068,NA,122.039572,NA,1.2,NA,NA," 2= against flow","1. No twists; snags; or tears","Boat",NA,NA,NA,"LAMOPE",128.699383986074,"Wings Landing",2023-12-29," "
"391",7276,12280,"LAMOPE12-ARNO-19JAN2023","12:12","",NA,38.177095,NA,121.900665,NA,1.3,NA,NA," 2= against flow","1. No twists; snags; or tears","Boat",NA,NA,NA,"LAMOPE",139.010648691434,"Arnold Slough",2023-01-19," gps 5; accuracy 2m. not paired. wakasa=frp23-506. chisal-f=frp23-507. unid plant = terrestrial grass maybe."
"392",8500,14000,"LAMOPE12-ARNO-26DEC2023","13:18","",NA,38.17496,NA,121.902135,NA,1.4,NA,NA," 2= against flow","1. No twists; snags; or tears","Boat",NA,NA,NA,"LAMOPE",149.151524838822,"Arnold Slough",2023-12-26," "
"393",8431,13913,"LAMOPE12-BLAC-28NOV2023","15:12","",NA,38.179364,NA,121.912816,NA,3,NA,NA," 2= against flow","1. No twists; snags; or tears","Boat",NA,NA,NA,"LAMOPE",288.23269931296,"Blacklock",2023-11-28," "
"394",7493,12532,"LAMOPE12-BROW-05APR2023","14:33","",NA,38.042608,NA,121.871949,NA,1.2,NA,NA," 2= against flow","1. No twists; snags; or tears","Boat",NA,NA,NA,"LAMOPE",128.699383986074,"Browns Island",2023-04-05," gps 5; accuracy 2m. not paired. "
"395",8365,13805,"LAMOPE12-BROW-15NOV2023","14:58","",NA,38.033894,NA,121.854384,NA,1.7,NA,NA," 2= against flow","1. No twists; snags; or tears","Boat",NA,NA,NA,"LAMOPE",178.551821933162,"Browns Island",2023-11-15," "
"396",8022,13422,"LAMOPE12-BROW-18MAY2023","13:17","",NA,38.03354,NA,121.856863,NA,1.7,NA,NA," 2= against flow","1. No twists; snags; or tears","Boat",NA,NA,NA,"LAMOPE",178.551821933162,"Browns Island",2023-05-18," gps 6 accuracy 3m. depth from handheld."
"397",7329,12329,"LAMOPE12-HONK-08FEB2023","15:16","",NA,38.077105,NA,121.90784,NA,2,NA,NA," 2= against flow","1. No twists; snags; or tears","Boat",NA,NA,NA,"LAMOPE",206.41862200576,"Honker-Spoonbill",2023-02-08," not paired. gps 5; accuracy 2m. "
"398",8451,13936,"LAMOPE12-HONK-11DEC2023","13:12","",NA,38.080395,NA,121.92509,NA,3,NA,NA," 2= against flow","1. No twists; snags; or tears","Boat",NA,NA,NA,"LAMOPE",288.23269931296,"Honker-Spoonbill",2023-12-11," "
"399",7261,12265,"LAMOPE12-HONK-12JAN2023","14:03","",NA,38.055171,NA,121.894993,NA,5.9,NA,NA," 2= against flow","2. Partial twist; snag; or tear","Boat",NA,NA,NA,"LAMOPE",332.7,"Honker-Spoonbill",2023-01-12," gps 5; accuracy 2. not paired. code 2: depth"
"400",7385,12405,"LAMOPE12-HONK-15MAR2023","13:43","",NA,38.05487,NA,121.895271,NA,5.8,NA,NA," 2= against flow","2. Partial twist; snag; or tear","Boat",NA,NA,NA,"LAMOPE",332.7,"Honker-Spoonbill",2023-03-15," gps 5; accuracy 3m. not paired. code 2: depth"
"401",8076,13478,"LAMOPE12-NURS-03MAY2023","16:13","",NA,38.184441,NA,121.900581,NA,1.2,NA,NA," 2= against flow","1. No twists; snags; or tears","Boat",NA,NA,NA,"LAMOPE",128.699383986074,"Nurse-Denverton",2023-05-03," depth from handheld. majority of veg was dead tule fragments. gps 5; accuracy 2m. not paired"
"402",7444,12464,"LAMOPE12-NURS-16MAR2023","13:50","",NA,38.174587,NA,121.92253,NA,3.9,NA,NA," 2= against flow","2. Partial twist; snag; or tear","Boat",NA,NA,NA,"LAMOPE",332.7,"Nurse-Denverton",2023-03-16," gps 5; accuracy 3m. not paired. "
"403",7352,12372,"LAMOPE12-PEYT-28FEB2023","14:11","",NA,38.223295,NA,122.032035,NA,4.8,NA,NA," 2= against flow","2. Partial twist; snag; or tear","Boat",NA,NA,NA,"LAMOPE",332.7,"Peytonia-Suisun",2023-02-28," gps 5; accuracy 2m. not paired."
"404",8512,14012,"LAMOPE12-WING-29DEC2023","14:08","",NA,38.224738,NA,122.037333,NA,1.3,NA,NA," 2= against flow","1. No twists; snags; or tears","Boat",NA,NA,NA,"LAMOPE",139.010648691434,"Wings Landing",2023-12-29," dead tule in net"
"405",7262,12266,"LAMOPE13-BROA-12JAN2023","14:26","",NA,38.048597,NA,121.848221,NA,3.7,NA,NA," 2= against flow","2. Partial twist; snag; or tear","Boat",NA,NA,NA,"LAMOPE",332.7,"Broad Slough",2023-01-12," gps 5; accuracy 2. not paired. seine code 2 -depth"
"406",7386,12406,"LAMOPE13-BROA-15MAR2023","14:10","",NA,38.062048,NA,121.849328,NA,8.6,NA,NA," 2= against flow","2. Partial twist; snag; or tear","Boat",NA,NA,NA,"LAMOPE",332.7,"Broad Slough",2023-03-15," gps 5; accuracy 3m. not paired. code 2 b/c of depth; wind blew us over the net"
"407",7495,12535,"LAMOPE13-BROW-05APR2023","15:28","",NA,38.03895,NA,121.857156,NA,1.3,NA,NA," 2= against flow","1. No twists; snags; or tears","Boat",NA,NA,NA,"LAMOPE",139.010648691434,"Browns Island",2023-04-05," "
"408",7330,12330,"LAMOPE13-CHIP-08FEB2023","15:32","",NA,38.067256,NA,121.91267,NA,2.8,NA,NA," 2= against flow","1. No twists; snags; or tears","Boat",NA,NA,NA,"LAMOPE",273.23299231529,"Chipps Island",2023-02-08," not paired. gps 5; accuracy 4m. "
"409",8452,13937,"LAMOPE13-CHIP-11DEC2023","13:35","",NA,38.055759,NA,121.927499,NA,2.1,NA,NA," 2= against flow","1. No twists; snags; or tears","Boat",NA,NA,NA,"LAMOPE",215.36677824735,"Chipps Island",2023-12-11," missil @ 96 has bleeding near anus and eyes"
"410",7353,12373,"LAMOPE13-PEYT-28FEB2023","14:28","",NA,38.2082,NA,122.034395,NA,1.2,NA,NA," 2= against flow","1. No twists; snags; or tears","Boat",NA,NA,NA,"LAMOPE",128.699383986074,"Peytonia-Suisun",2023-02-28," gps 5; accuracy 2m. not paired."
"411",8366,13806,"LAMOPE13-WINT-15NOV2023","15:27","",NA,38.041506,NA,121.848966,NA,1.3,NA,NA," 2= against flow","1. No twists; snags; or tears","Boat",NA,NA,NA,"LAMOPE",139.010648691434,"Winter Island",2023-11-15," "
"412",8023,13423,"LAMOPE13-WINT-18MAY2023","13:41","",NA,38.030086,NA,121.841663,NA,2.5,NA,NA," 2= against flow","1. No twists; snags; or tears","Boat",NA,NA,NA,"LAMOPE",249.455517634,"Winter Island",2023-05-18," gps 6 accuracy 3m. depth from handheld."
"413",7263,12267,"LAMOPE14-BROA-12JAN2023","14:42","",NA,38.038558,NA,121.844333,NA,4.1,NA,NA," 2= against flow","2. Partial twist; snag; or tear","Boat",NA,NA,NA,"LAMOPE",332.7,"Broad Slough",2023-01-12," gps 5; accuracy 2. not paired. seine code 2 - depth"
"414",7387,12407,"LAMOPE14-BROA-15MAR2023","14:26","",NA,38.0474,NA,121.842021,NA,5.8,NA,NA," 2= against flow","2. Partial twist; snag; or tear","Boat",NA,NA,NA,"LAMOPE",332.7,"Broad Slough",2023-03-15," gps 5; accuracy 5m. not paired. code 2: depth"
"415",7331,12331,"LAMOPE14-CHIP-08FEB2023","15:44","",NA,38.064156,NA,121.911284,NA,1.5,NA,NA," 2= against flow","1. No twists; snags; or tears","Boat",NA,NA,NA,"LAMOPE",159.12201242824,"Chipps Island",2023-02-08," not paired. gps 5; accuracy 4m. chisal-f collected for ucd"
"416",8453,13938,"LAMOPE14-CHIP-11DEC2023","13:55","",NA,38.058346,NA,121.919074,NA,2.7,NA,NA," 2= against flow","1. No twists; snags; or tears","Boat",NA,NA,NA,"LAMOPE",265.477555979498,"Chipps Island",2023-12-11," "
"417",7498,12538,"LAMOPE14-WINT-05APR2023","16:15","",NA,38.03235,NA,121.842933,NA,3.4,NA,NA," 2= against flow","1. No twists; snags; or tears","Boat",NA,NA,NA,"LAMOPE",316.187450612646,"Winter Island",2023-04-05," gps 5; accuracy 2m. not paired. frp23-524 is the label for chisal-f @49mm on ice"
"418",8367,13807,"LAMOPE14-WINT-15NOV2023","15:50","",NA,38.044518,NA,121.848618,NA,1.7,NA,NA," 2= against flow","1. No twists; snags; or tears","Boat",NA,NA,NA,"LAMOPE",178.551821933162,"Winter Island",2023-11-15," current not really moving"
"419",8024,13424,"LAMOPE14-WINT-18MAY2023","14:02","",NA,38.047595,NA,121.851498,NA,1.4,NA,NA," 2= against flow","1. No twists; snags; or tears","Boat",NA,NA,NA,"LAMOPE",149.151524838822,"Winter Island",2023-05-18," gps 6 accuracy 3m. depth from handheld."
"420",7264,12268,"LAMOPE15-BROA-12JAN2023","15:01","",NA,38.032679,NA,121.839569,NA,3.3,NA,NA," 2= against flow","1. No twists; snags; or tears","Boat",NA,NA,NA,"LAMOPE",309.454345624682,"Broad Slough",2023-01-12," gps 5; accuracy 2. not paired."
"421",7388,12408,"LAMOPE15-BROA-15MAR2023","14:41","",NA,38.032914,NA,121.839406,NA,4.9,NA,NA," 2= against flow","2. Partial twist; snag; or tear","Boat",NA,NA,NA,"LAMOPE",332.7,"Broad Slough",2023-03-15," gps 5; accuracy 4m. not paired. code 2: depth"
"422",8454,13939,"LAMOPE15-CHIP-11DEC2023","14:33","",NA,38.063051,NA,121.910644,NA,2.5,NA,NA," 2= against flow","1. No twists; snags; or tears","Boat",NA,NA,NA,"LAMOPE",249.455517634,"Chipps Island",2023-12-11," "
"423",7332,12332,"LAMOPE15-HONK-08FEB2023","16:04","",NA,38.058493,NA,121.904973,NA,5.6,NA,NA," 2= against flow","2. Partial twist; snag; or tear","Boat",NA,NA,NA,"LAMOPE",332.7,"Honker-Spoonbill",2023-02-08," not paired. gps 5; accuracy 2m. code 2 due to depth"
"424",7496,12536,"LAMOPE15-WINT-05APR2023","16:36","",NA,38.030453,NA,121.841833,NA,2.6,NA,NA," 2= against flow","1. No twists; snags; or tears","Boat",NA,NA,NA,"LAMOPE",257.551731085734,"Winter Island",2023-04-05," gps 5; accuracy 2m. not paired. "
"425",8368,13808,"LAMOPE15-WINT-15NOV2023","16:07","",NA,38.047661,NA,121.848355,NA,3.3,NA,NA," 2= against flow","1. No twists; snags; or tears","Boat",NA,NA,NA,"LAMOPE",309.454345624682,"Winter Island",2023-11-15," "
"426",8025,13425,"LAMOPE15-WINT-18MAY2023","14:31","",NA,38.048869,NA,121.84854,NA,1.7,NA,NA," 2= against flow","1. No twists; snags; or tears","Boat",NA,NA,NA,"LAMOPE",178.551821933162,"Winter Island",2023-05-18," gps 6 accuracy 3m. depth from handheld."
"427",8241,13681,"OTTTRA01-BROA-09OCT2023","08:52","09:02",10,38.048612,38.053936,121.843523,121.844854,6.75,637622,658100," 2= against flow","1. No twists; snags; or tears","",26,NA,NA,"OTTTRA",1513.170615,"Broad Slough",2023-10-09," "
"428",8044,13447,"OTTTRA01-BROA-13JUN2023","07:33","07:43",10,38.037301,38.043599,121.843056,121.845921,4.45,2607,23670," 2= against flow","2. Partial twist; snag; or tear","",16,NA,NA,"OTTTRA",1556.3977275,"Broad Slough",2023-06-13," large amount of peat in net; but not in cod end. seine code 2"
"429",8401,13861,"OTTTRA01-GRIZ-11OCT2023","09:00","09:10",10,38.116125,38.112622,122.000265,122.004884,1.75,959267,985682," 2= against flow","1. No twists; snags; or tears","",6,NA,NA,"OTTTRA",1951.8703875,"Grizzly Bay",2023-10-11," towed perpendicular for part of the tow"
"430",8064,13477,"OTTTRA01-GRIZ-15JUN2023","07:48","07:58",10,38.118666,38.123997,122.015346,122.00961,1.55,276251,307432," 2= against flow","1. No twists; snags; or tears","",6,NA,NA,"OTTTRA",2304.0420425,"Grizzly Bay",2023-06-15," seine code 1"
"431",8281,13721,"OTTTRA01-HONK-10OCT2023","09:34","09:44",10,38.059201,38.061288,121.925166,121.93128,2.25,770550,794824," 2= against flow","1. No twists; snags; or tears","",8,NA,NA,"OTTTRA",1793.666545,"Honker-Spoonbill",2023-10-10," "
"432",8055,13457,"OTTTRA01-HONK-14JUN2023","07:57","08:07",10,38.069678,38.064253,121.911674,121.910689,5.85,165617,199305," 2= against flow","1. No twists; snags; or tears","",16,NA,NA,"OTTTRA",2489.29054,"Honker-Spoonbill",2023-06-14," seine code 1"
"433",8341,13781,"OTTTRA01-HORS-30OCT2023","10:02","10:12",10,38.083279,38.082278,121.734751,121.727867,5.75,166854,199918," 2= against flow","1. No twists; snags; or tears","",24,NA,NA,"OTTTRA",2443.18162,"Horseshoe Bend",2023-10-30," "
"434",8088,13491,"OTTTRA01-WTIB-21JUN2023","11:07","11:17",10,38.09741,NA,121.5911,121.58273,8.75,471101,499078," 2= against flow","1. No twists; snags; or tears","",32,NA,NA,"OTTTRA",2067.2904725,"Webb Tract Island and Berms",2023-06-21," 6 unid larval fish less than 20mm= fun fact. 1 plastic spool. end lat written down wrong."
"435",8242,13682,"OTTTRA02-BROA-09OCT2023","09:28","09:38",10,38.045313,38.040287,121.842319,121.839306,5.25,658093,683008," 2= against flow","1. No twists; snags; or tears","",26,NA,NA,"OTTTRA",1841.0316375,"Broad Slough",2023-10-09," "
"436",8046,13448,"OTTTRA02-BROA-13JUN2023","08:18","08:29",10,38.0466,38.041959,121.843201,121.840408,6.05,25175,58323," 2= against flow","1. No twists; snags; or tears","",28,NA,NA,"OTTTRA",2449.38859,"Broad Slough",2023-06-13," frp23-021: unid; frp23-551: sav. seine code 1"
"437",8058,13460,"OTTTRA02-CHIP-14JUN2023","08:31","08:40",8.5,38.063456,38.069166,121.910817,121.912914,1.45,199366,222662," 2= against flow","2. Partial twist; snag; or tear","",6,NA,NA,"OTTTRA",1721.39968,"Chipps Island",2023-06-14," 8.5 minutes. code 2: caught t-post; 12-foot hole ripped in net; repaired in field. seine code 2"
"438",8402,13862,"OTTTRA02-GRIZ-11OCT2023","09:43","09:53",10,38.120083,38.119711,122.006302,122.013179,1.75,988437,14200," 2= against flow","1. No twists; snags; or tears","",6,NA,NA,"OTTTRA",1903.618585,"Grizzly Bay",2023-10-11," "
"439",8077,13479,"OTTTRA02-GRIZ-15JUN2023","08:24","08:34",10,38.13004,38.133512,122.005411,122.01082,1.05,307799,334908," 2= against flow","1. No twists; snags; or tears","",6,NA,NA,"OTTTRA",2003.1517825,"Grizzly Bay",2023-06-15," yelgob @30 found after net was set; @20 same (from previous). seine code 1"
"440",8282,13722,"OTTTRA02-HONK-10OCT2023","10:18","10:28",10,38.068005,38.071195,121.921454,121.926925,2.45,796459,822260," 2= against flow","1. No twists; snags; or tears","",8,NA,NA,"OTTTRA",1906.5003925,"Honker-Spoonbill",2023-10-10," "
"441",8342,13782,"OTTTRA02-HORS-30OCT2023","10:31","10:41",10,38.082394,38.082594,121.726982,121.719685,4.75,199923,235216," 2= against flow","1. No twists; snags; or tears","",20,NA,NA,"OTTTRA",2607.8880025,"Horseshoe Bend",2023-10-30," "
"442",8089,13492,"OTTTRA02-WTIB-21JUN2023","11:44","11:54",10,38.097066,38.094548,121.59357,121.587826,8.25,499098,532149," 2= against flow","1. No twists; snags; or tears","",32,NA,NA,"OTTTRA",2442.2210175,"Webb Tract Island and Berms",2023-06-21," flowmeter pulled for 20 seconds to remove veg."
"443",8243,13683,"OTTTRA03-BROA-09OCT2023","10:17","10:27",10,38.037499,38.033184,121.840374,121.835559,7.75,683021,702728," 2= against flow","1. No twists; snags; or tears","",26,NA,NA,"OTTTRA",1456.1994975,"Broad Slough",2023-10-09," "
"444",8048,13450,"OTTTRA03-BROA-13JUN2023","08:53","09:03",10,38.040173,38.034923,121.838092,121.836288,3.85,58339,87480," 2= against flow","1. No twists; snags; or tears","",12,NA,NA,"OTTTRA",2153.3013425,"Broad Slough",2023-06-13," 3 harmud found on deck probably from previous sample. same veg as last trawl. seine code 1"
"445",8059,13461,"OTTTRA03-CHIP-14JUN2023","09:37","09:45",7,38.069349,38.070789,121.912911,121.915543,1.55,222664,242244," 2= against flow","1. No twists; snags; or tears","",6,NA,NA,"OTTTRA",1446.81515,"Chipps Island",2023-06-14," 7 mins 10 secs. +1 strbas dropped. seine code 1"
"446",8403,13863,"OTTTRA03-GRIZ-11OCT2023","10:15","10:25",10,38.128022,38.124952,121.996909,122.002985,1.85,14195,42518," 2= against flow","1. No twists; snags; or tears","",6,NA,NA,"OTTTRA",2092.8572775,"Grizzly Bay",2023-10-11," "
"447",8283,13723,"OTTTRA03-HONK-10OCT2023","11:08","11:17",9,38.066352,38.071178,121.911514,121.911411,5.05,832915,862083," 2= against flow","1. No twists; snags; or tears","",20,NA,NA,"OTTTRA",2155.29644,"Honker-Spoonbill",2023-10-10," 9-minute trawl - hit other station"
"448",8343,13783,"OTTTRA03-HORS-30OCT2023","11:03","11:13",10,38.08289,38.083737,121.720859,121.714768,5.75,235208,260335," 2= against flow","1. No twists; snags; or tears","",16,NA,NA,"OTTTRA",1856.6968475,"Horseshoe Bend",2023-10-30," "
"449",8078,13481,"OTTTRA03-TULE-15JUN2023","10:22","10:32",10,38.122096,38.126071,121.983129,121.986332,1.65,335074,358236," 2= against flow","1. No twists; snags; or tears","",6,NA,NA,"OTTTRA",1711.498085,"Tule Red",2023-06-15," seine code 1"
"450",8090,13493,"OTTTRA03-WTIB-21JUN2023","12:31","12:41",10,38.097697,38.095819,121.591862,121.585259,9.25,532153,559259," 2= against flow","1. No twists; snags; or tears","",32,NA,NA,"OTTTRA",2002.930105,"Webb Tract Island and Berms",2023-06-21," "
"451",8244,13684,"OTTTRA04-BROW-09OCT2023","11:19","11:25",7,38.038893,38.038528,121.859738,121.863547,4.05,702819,718238," 2= against flow","1. No twists; snags; or tears","",16,NA,NA,"OTTTRA",1139.3484575,"Browns Island",2023-10-09," 7 min trawl"
"452",8049,13451,"OTTTRA04-BROW-13JUN2023","10:13","10:21",8,38.03911,38.03959,121.85898,121.864,3.45,87505,111768," 2= against flow","1. No twists; snags; or tears","",12,NA,NA,"OTTTRA",1792.8537275,"Browns Island",2023-06-13," gps from phone; trawl ended at 8 minutes. seine code 1"
"453",8284,13724,"OTTTRA04-CHIP-10OCT2023","11:35","11:45",10,38.0616,38.067089,121.909894,121.912692,2.05,862082,895442," 2= against flow","1. No twists; snags; or tears","",8,NA,NA,"OTTTRA",2465.0538,"Chipps Island",2023-10-10," "
"454",8061,13463,"OTTTRA04-HONK-14JUN2023","10:21","10:31",10,38.061908,38.064806,121.908939,121.910905,6.35,242453,269812," 2= against flow","1. No twists; snags; or tears","",20,NA,NA,"OTTTRA",2021.6249075,"Honker-Spoonbill",2023-06-14," seine code 1"
"455",8091,13494,"OTTTRA04-HORS-21JUN2023","13:28","13:38",10,38.092935,38.098015,121.70864,121.708153,4.55,559300,593843," 2= against flow","1. No twists; snags; or tears","",16,NA,NA,"OTTTRA",2552.4686275,"Horseshoe Bend",2023-06-21," "
"456",8404,13864,"OTTTRA04-TULE-11OCT2023","11:27","11:37",10,38.121897,38.126045,121.983017,121.987111,2.65,42520,71487," 2= against flow","1. No twists; snags; or tears","",8,NA,NA,"OTTTRA",2140.4440475,"Tule Red",2023-10-11," "
"457",8083,13486,"OTTTRA04-TULE-15JUN2023","10:56","11:06",10,38.12673,38.131163,121.987277,121.990313,1.75,358229,386105," 2= against flow","1. No twists; snags; or tears","",6,NA,NA,"OTTTRA",2059.82733,"Tule Red",2023-06-15," staflo @56 from previous trawl. seine code 1"
"458",8344,13784,"OTTTRA04-WTIB-30OCT2023","12:16","12:22",6,38.096829,38.095614,121.589397,121.585267,6.25,260344,274700," 2= against flow","2. Partial twist; snag; or tear","",22,NA,NA,"OTTTRA",1060.80073,"Webb Tract Island and Berms",2023-10-30," stopped at 6 min; door flipped out of water"
"459",8285,13725,"OTTTRA05-CHIP-10OCT2023","12:31","12:41",10,38.062412,38.067533,121.910158,121.912778,2.05,895444,926361," 2= against flow","1. No twists; snags; or tears","",8,NA,NA,"OTTTRA",2284.5344225,"Chipps Island",2023-10-10," repeated same trawl area as last because barge blocking upper section. mostly dead tule. "
"460",8092,13495,"OTTTRA05-HORS-21JUN2023","13:54","14:04",10,38.091217,38.085413,121.708706,121.71179,3.25,593906,610660," 2= against flow","1. No twists; snags; or tears","",16,NA,NA,"OTTTRA",1237.994945,"Horseshoe Bend",2023-06-21," "
"461",8405,13865,"OTTTRA05-TULE-11OCT2023","11:52","12:52",10,38.12678,38.131353,121.987271,121.991153,2.45,71487,103876," 2= against flow","1. No twists; snags; or tears","",10,NA,NA,"OTTTRA",2393.3041825,"Tule Red",2023-10-11," "
"462",8085,13488,"OTTTRA05-TULE-15JUN2023","11:30","11:40",10,38.131077,38.133972,121.990583,121.994661,1.75,386104,413572," 2= against flow","1. No twists; snags; or tears","",6,NA,NA,"OTTTRA",2029.67919,"Tule Red",2023-06-15," hook and line - strbas @ 555mm caught at 38.133972; -121.994661 . seine code 1"
"463",8062,13464,"OTTTRA05-WINT-14JUN2023","11:14","11:16",2.5,38.043134,38.044155,121.848976,121.84959,1.25,269814,274924," 2= against flow","2. Partial twist; snag; or tear","",4,NA,NA,"OTTTRA",377.590675,"Winter Island",2023-06-14," 2.5-minute trawl because of veg. seine code 2 : cod end 100% full; but not over 100%."
"464",8345,13785,"OTTTRA05-WTIB-30OCT2023","12:51","13:01",10,38.09585,38.094235,121.592363,121.58814,8.75,274704,290362," 3= unknown","1. No twists; snags; or tears","",NA,NA,NA,"OTTTRA",1157.008765,"Webb Tract Island and Berms",2023-10-30," "
"465",8245,13686,"OTTTRA06-BROW-09OCT2023","12:04","12:06",2.5,38.040124,38.041712,121.870183,121.869975,4.25,719684,729298," 2= against flow","1. No twists; snags; or tears","",14,NA,NA,"OTTTRA",710.402495,"Browns Island",2023-10-09," same wq as previous - same site visit. 2.5 min trawl due to peat"
"466",8051,13454,"OTTTRA06-BROW-13JUN2023","10:39","11:05",5,38.03952,38.04179,121.86522,121.86998,3.25,113064,129788," 2= against flow","1. No twists; snags; or tears","",12,NA,NA,"OTTTRA",1235.77817,"Browns Island",2023-06-13," gps from phone. trawl lasted 5 minutes. seine code 1"
"467",8286,13726,"OTTTRA06-CHIP-10OCT2023","13:07","13:17",10,38.061341,38.066589,121.909552,121.912609,2.05,926350,959251," 2= against flow","1. No twists; snags; or tears","",8,NA,NA,"OTTTRA",2431.1371425,"Chipps Island",2023-10-10," 3rd repeated trawl area. serpentine tow"
"468",8093,13496,"OTTTRA06-HORS-21JUN2023","14:28","14:38",10,38.082676,38.083265,121.724298,121.731862,3.45,610683,632757," 2= against flow","1. No twists; snags; or tears","",16,NA,NA,"OTTTRA",1631.103045,"Horseshoe Bend",2023-06-21," "
"469",8086,13489,"OTTTRA06-RYER-15JUN2023","12:52","13:02",10,38.08194,38.086283,122.017918,122.017112,1.95,413650,444885," 2= against flow","1. No twists; snags; or tears","",6,NA,NA,"OTTTRA",2308.0322375,"Ryer Island",2023-06-15," "
"470",8406,13866,"OTTTRA06-TULE-11OCT2023","12:15","12:22",7,38.132587,38.133725,121.991211,121.995896,2.35,103874,126998," 2= against flow","1. No twists; snags; or tears","",10,NA,NA,"OTTTRA",1708.69017,"Tule Red",2023-10-11," 7 minute trawl; hit mouth of tule"
"471",8346,13786,"OTTTRA06-WTIB-30OCT2023","13:26","13:36",10,38.094816,38.096394,121.581313,121.586952,9.25,290368,319279," 2= against flow","1. No twists; snags; or tears","",20,NA,NA,"OTTTRA",2136.3060675,"Webb Tract Island and Berms",2023-10-30," "
"472",8246,13687,"OTTTRA07-BROW-09OCT2023","12:45","12:50",4.5,38.042015,38.042159,121.868435,121.871285,4.55,729283,742541," 2= against flow","2. Partial twist; snag; or tear","",12,NA,NA,"OTTTRA",979.666765,"Browns Island",2023-10-09," 4.5 min. hit peat and stopped early; took a minute to get on board"
"473",8053,13455,"OTTTRA07-BROW-13JUN2023","11:18","11:20",2,38.04179,38.04231,121.86998,121.869,4.45,129781,136227," 2= against flow","1. No twists; snags; or tears","",12,NA,NA,"OTTTRA",476.311055,"Browns Island",2023-06-13," gps from phone. trawl lasted 2.5 minutes. cod end was almost 100% filled with mud and peat. seine code 1"
"474",8407,13867,"OTTTRA07-RYER-11OCT2023","13:06","13:16",10,38.083305,38.081557,122.012593,122.017709,2.75,115628,142489," 2= against flow","1. No twists; snags; or tears","",11,NA,NA,"OTTTRA",1984.8264425,"Ryer Island",2023-10-11," maeotias may be from last trawl"
"475",8087,13490,"OTTTRA07-RYER-15JUN2023","13:28","13:38",10,38.086245,38.086396,122.017022,122.023045,3.35,444909,470551," 2= against flow","1. No twists; snags; or tears","",12,NA,NA,"OTTTRA",1894.751485,"Ryer Island",2023-06-15," dead tule in cod end."
"476",8408,13869,"OTTTRA08-RYER-11OCT2023","13:40","13:49",9,38.086178,38.086546,122.01733,122.024008,2.75,142487,166495," 2= against flow","1. No twists; snags; or tears","",11,NA,NA,"OTTTRA",1774.01114,"Ryer Island",2023-10-11," 9 min trawl"
"477",8247,13688,"OTTTRA08-WINT-09OCT2023","13:29","13:32",3,38.039348,38.041201,121.845104,121.845697,2.35,742535,752135," 2= against flow","1. No twists; snags; or tears","",8,NA,NA,"OTTTRA",709.368,"Winter Island",2023-10-09," 3 min trawl due to veg"
"478",8248,13689,"OTTTRA09-WINT-09OCT2023","13:54","13:56",2.5,38.046267,38.047627,121.850782,121.851561,1.75,752137,758507," 2= against flow","1. No twists; snags; or tears","",6,NA,NA,"OTTTRA",470.695225,"Winter Island",2023-10-09," 2.5 min due to veg"
"479",8249,13690,"OTTTRA10-WINT-09OCT2023","14:24","14:28",4,38.030119,38.032366,121.841634,121.84289,1.75,758508,770440," 2= against flow","1. No twists; snags; or tears","",6,NA,NA,"OTTTRA",881.68531,"Winter Island",2023-10-09," 4 min - veg"
